<?xml version="1.0" encoding="UTF-8"?>
<gpx xmlns:gpxdata="http://www.cluetrust.com/XML/GPXDATA/1/0" xmlns:xsi="http://www.w3.org/2001/XMLSchema-instance" xmlns="http://www.topografix.com/GPX/1/1" version="1.1" creator="http://ridewithgps.com/" xsi:schemaLocation="http://www.topografix.com/GPX/1/1 http://www.topografix.com/GPX/1/1/gpx.xsd http://www.cluetrust.com/XML/GPXDATA/1/0 http://www.cluetrust.com/Schemas/gpxdata10.xsd">
  <metadata>
    <name>皇居　東京たわー</name>
  </metadata>
  <trk>
    <name>皇居　東京たわー</name>
    <trkseg>
      <trkpt lat="35.68187" lon="139.76471">
        <ele>7.2</ele>
      </trkpt>
      <trkpt lat="35.68187" lon="139.76473">
        <ele>7.2</ele>
      </trkpt>
      <trkpt lat="35.6815" lon="139.7646">
        <ele>2.8</ele>
      </trkpt>
      <trkpt lat="35.68167" lon="139.76381">
        <ele>10.5</ele>
      </trkpt>
      <trkpt lat="35.68183" lon="139.76302">
        <ele>29.6</ele>
      </trkpt>
      <trkpt lat="35.682" lon="139.76222">
        <ele>36.7</ele>
      </trkpt>
      <trkpt lat="35.68219" lon="139.76138">
        <ele>13.9</ele>
      </trkpt>
      <trkpt lat="35.68238" lon="139.76055">
        <ele>-8.8</ele>
      </trkpt>
      <trkpt lat="35.68257" lon="139.75971">
        <ele>-7.5</ele>
      </trkpt>
      <trkpt lat="35.68266" lon="139.75966">
        <ele>-6.4</ele>
      </trkpt>
      <trkpt lat="35.68275" lon="139.75966">
        <ele>-6.0</ele>
      </trkpt>
      <trkpt lat="35.68303" lon="139.75983">
        <ele>-6.1</ele>
      </trkpt>
      <trkpt lat="35.68303" lon="139.75983">
        <ele>-6.1</ele>
      </trkpt>
      <trkpt lat="35.68318" lon="139.75993">
        <ele>-5.8</ele>
      </trkpt>
      <trkpt lat="35.68321" lon="139.75984">
        <ele>-5.0</ele>
      </trkpt>
      <trkpt lat="35.68387" lon="139.76006">
        <ele>-0.8</ele>
      </trkpt>
      <trkpt lat="35.68452" lon="139.76027">
        <ele>2.6</ele>
      </trkpt>
      <trkpt lat="35.68481" lon="139.7604">
        <ele>2.8</ele>
      </trkpt>
      <trkpt lat="35.68496" lon="139.7605">
        <ele>3.1</ele>
      </trkpt>
      <trkpt lat="35.68529" lon="139.76077">
        <ele>4.9</ele>
      </trkpt>
      <trkpt lat="35.68532" lon="139.76082">
        <ele>5.3</ele>
      </trkpt>
      <trkpt lat="35.6856" lon="139.76095">
        <ele>7.2</ele>
      </trkpt>
      <trkpt lat="35.68556" lon="139.76108">
        <ele>8.7</ele>
      </trkpt>
      <trkpt lat="35.68579" lon="139.76115">
        <ele>10.1</ele>
      </trkpt>
      <trkpt lat="35.68579" lon="139.76115">
        <ele>10.1</ele>
      </trkpt>
      <trkpt lat="35.68651" lon="139.76134">
        <ele>13.0</ele>
      </trkpt>
      <trkpt lat="35.68723" lon="139.76152">
        <ele>11.8</ele>
      </trkpt>
      <trkpt lat="35.68735" lon="139.76151">
        <ele>10.6</ele>
      </trkpt>
      <trkpt lat="35.68765" lon="139.76139">
        <ele>6.9</ele>
      </trkpt>
      <trkpt lat="35.68836" lon="139.76112">
        <ele>0.6</ele>
      </trkpt>
      <trkpt lat="35.68923" lon="139.76083">
        <ele>2.0</ele>
      </trkpt>
      <trkpt lat="35.68923" lon="139.76083">
        <ele>2.0</ele>
      </trkpt>
      <trkpt lat="35.68935" lon="139.76073">
        <ele>4.8</ele>
      </trkpt>
      <trkpt lat="35.68972" lon="139.76028">
        <ele>14.1</ele>
      </trkpt>
      <trkpt lat="35.68972" lon="139.76028">
        <ele>14.1</ele>
      </trkpt>
      <trkpt lat="35.69001" lon="139.75992">
        <ele>19.6</ele>
      </trkpt>
      <trkpt lat="35.69005" lon="139.75985">
        <ele>19.0</ele>
      </trkpt>
      <trkpt lat="35.69013" lon="139.75951">
        <ele>17.2</ele>
      </trkpt>
      <trkpt lat="35.69013" lon="139.75951">
        <ele>17.2</ele>
      </trkpt>
      <trkpt lat="35.69029" lon="139.75883">
        <ele>15.0</ele>
      </trkpt>
      <trkpt lat="35.69031" lon="139.75872">
        <ele>14.9</ele>
      </trkpt>
      <trkpt lat="35.69031" lon="139.75872">
        <ele>14.9</ele>
      </trkpt>
      <trkpt lat="35.69047" lon="139.75768">
        <ele>19.5</ele>
      </trkpt>
      <trkpt lat="35.69063" lon="139.75665">
        <ele>14.6</ele>
      </trkpt>
      <trkpt lat="35.69063" lon="139.75665">
        <ele>14.6</ele>
      </trkpt>
      <trkpt lat="35.69066" lon="139.75641">
        <ele>13.5</ele>
      </trkpt>
      <trkpt lat="35.69062" lon="139.75622">
        <ele>12.6</ele>
      </trkpt>
      <trkpt lat="35.69043" lon="139.75572">
        <ele>10.2</ele>
      </trkpt>
      <trkpt lat="35.69042" lon="139.7557">
        <ele>10.1</ele>
      </trkpt>
      <trkpt lat="35.69042" lon="139.7557">
        <ele>10.1</ele>
      </trkpt>
      <trkpt lat="35.69021" lon="139.75517">
        <ele>15.3</ele>
      </trkpt>
      <trkpt lat="35.69" lon="139.75464">
        <ele>16.4</ele>
      </trkpt>
      <trkpt lat="35.68985" lon="139.75432">
        <ele>14.7</ele>
      </trkpt>
      <trkpt lat="35.68985" lon="139.75432">
        <ele>14.7</ele>
      </trkpt>
      <trkpt lat="35.68973" lon="139.75408">
        <ele>14.1</ele>
      </trkpt>
      <trkpt lat="35.68932" lon="139.75326">
        <ele>13.9</ele>
      </trkpt>
      <trkpt lat="35.68926" lon="139.75308">
        <ele>12.5</ele>
      </trkpt>
      <trkpt lat="35.68926" lon="139.75301">
        <ele>12.1</ele>
      </trkpt>
      <trkpt lat="35.68926" lon="139.75301">
        <ele>12.1</ele>
      </trkpt>
      <trkpt lat="35.68924" lon="139.75285">
        <ele>10.9</ele>
      </trkpt>
      <trkpt lat="35.68926" lon="139.75274">
        <ele>10.3</ele>
      </trkpt>
      <trkpt lat="35.68933" lon="139.75253">
        <ele>9.4</ele>
      </trkpt>
      <trkpt lat="35.68947" lon="139.75235">
        <ele>8.9</ele>
      </trkpt>
      <trkpt lat="35.68947" lon="139.75235">
        <ele>8.9</ele>
      </trkpt>
      <trkpt lat="35.68959" lon="139.75215">
        <ele>8.1</ele>
      </trkpt>
      <trkpt lat="35.68961" lon="139.75206">
        <ele>7.5</ele>
      </trkpt>
      <trkpt lat="35.68962" lon="139.75187">
        <ele>6.0</ele>
      </trkpt>
      <trkpt lat="35.68959" lon="139.75158">
        <ele>4.0</ele>
      </trkpt>
      <trkpt lat="35.68952" lon="139.75135">
        <ele>3.8</ele>
      </trkpt>
      <trkpt lat="35.68945" lon="139.75118">
        <ele>4.0</ele>
      </trkpt>
      <trkpt lat="35.68945" lon="139.75118">
        <ele>4.0</ele>
      </trkpt>
      <trkpt lat="35.68922" lon="139.75063">
        <ele>8.1</ele>
      </trkpt>
      <trkpt lat="35.68905" lon="139.75034">
        <ele>13.0</ele>
      </trkpt>
      <trkpt lat="35.68879" lon="139.74996">
        <ele>19.7</ele>
      </trkpt>
      <trkpt lat="35.68873" lon="139.74983">
        <ele>20.5</ele>
      </trkpt>
      <trkpt lat="35.68873" lon="139.74983">
        <ele>20.5</ele>
      </trkpt>
      <trkpt lat="35.68861" lon="139.74956">
        <ele>21.7</ele>
      </trkpt>
      <trkpt lat="35.68848" lon="139.74925">
        <ele>22.5</ele>
      </trkpt>
      <trkpt lat="35.68829" lon="139.74873">
        <ele>21.2</ele>
      </trkpt>
      <trkpt lat="35.68816" lon="139.74815">
        <ele>20.1</ele>
      </trkpt>
      <trkpt lat="35.68808" lon="139.7477">
        <ele>20.5</ele>
      </trkpt>
      <trkpt lat="35.68803" lon="139.74709">
        <ele>25.0</ele>
      </trkpt>
      <trkpt lat="35.68798" lon="139.74648">
        <ele>31.4</ele>
      </trkpt>
      <trkpt lat="35.68808" lon="139.74571">
        <ele>36.5</ele>
      </trkpt>
      <trkpt lat="35.68808" lon="139.74571">
        <ele>36.5</ele>
      </trkpt>
      <trkpt lat="35.68813" lon="139.74525">
        <ele>30.7</ele>
      </trkpt>
      <trkpt lat="35.688" lon="139.74522">
        <ele>29.7</ele>
      </trkpt>
      <trkpt lat="35.688" lon="139.74522">
        <ele>29.7</ele>
      </trkpt>
      <trkpt lat="35.68717" lon="139.745">
        <ele>24.6</ele>
      </trkpt>
      <trkpt lat="35.68634" lon="139.74479">
        <ele>25.6</ele>
      </trkpt>
      <trkpt lat="35.68552" lon="139.74457">
        <ele>28.8</ele>
      </trkpt>
      <trkpt lat="35.68469" lon="139.74436">
        <ele>38.7</ele>
      </trkpt>
      <trkpt lat="35.68469" lon="139.74436">
        <ele>38.7</ele>
      </trkpt>
      <trkpt lat="35.68469" lon="139.74436">
        <ele>38.7</ele>
      </trkpt>
      <trkpt lat="35.68415" lon="139.74425">
        <ele>45.0</ele>
      </trkpt>
      <trkpt lat="35.68392" lon="139.74422">
        <ele>43.4</ele>
      </trkpt>
      <trkpt lat="35.68377" lon="139.7442">
        <ele>42.4</ele>
      </trkpt>
      <trkpt lat="35.68333" lon="139.7442">
        <ele>38.8</ele>
      </trkpt>
      <trkpt lat="35.68277" lon="139.7443">
        <ele>41.9</ele>
      </trkpt>
      <trkpt lat="35.68241" lon="139.74441">
        <ele>42.1</ele>
      </trkpt>
      <trkpt lat="35.68226" lon="139.74447">
        <ele>40.7</ele>
      </trkpt>
      <trkpt lat="35.68149" lon="139.74493">
        <ele>32.4</ele>
      </trkpt>
      <trkpt lat="35.68073" lon="139.74539">
        <ele>18.5</ele>
      </trkpt>
      <trkpt lat="35.68073" lon="139.74539">
        <ele>18.5</ele>
      </trkpt>
      <trkpt lat="35.68013" lon="139.74575">
        <ele>14.7</ele>
      </trkpt>
      <trkpt lat="35.68009" lon="139.74578">
        <ele>14.4</ele>
      </trkpt>
      <trkpt lat="35.68009" lon="139.74579">
        <ele>14.3</ele>
      </trkpt>
      <trkpt lat="35.6799" lon="139.74597">
        <ele>14.8</ele>
      </trkpt>
      <trkpt lat="35.67985" lon="139.74603">
        <ele>15.3</ele>
      </trkpt>
      <trkpt lat="35.67976" lon="139.74624">
        <ele>15.4</ele>
      </trkpt>
      <trkpt lat="35.67971" lon="139.74639">
        <ele>15.2</ele>
      </trkpt>
      <trkpt lat="35.67971" lon="139.74639">
        <ele>15.2</ele>
      </trkpt>
      <trkpt lat="35.67948" lon="139.74713">
        <ele>13.3</ele>
      </trkpt>
      <trkpt lat="35.67933" lon="139.74741">
        <ele>12.1</ele>
      </trkpt>
      <trkpt lat="35.67913" lon="139.74766">
        <ele>12.4</ele>
      </trkpt>
      <trkpt lat="35.67898" lon="139.74781">
        <ele>13.1</ele>
      </trkpt>
      <trkpt lat="35.67898" lon="139.74781">
        <ele>13.1</ele>
      </trkpt>
      <trkpt lat="35.67874" lon="139.74807">
        <ele>13.5</ele>
      </trkpt>
      <trkpt lat="35.67801" lon="139.74867">
        <ele>11.1</ele>
      </trkpt>
      <trkpt lat="35.67801" lon="139.74867">
        <ele>11.1</ele>
      </trkpt>
      <trkpt lat="35.67771" lon="139.74896">
        <ele>8.5</ele>
      </trkpt>
      <trkpt lat="35.67755" lon="139.74919">
        <ele>6.2</ele>
      </trkpt>
      <trkpt lat="35.67744" lon="139.74942">
        <ele>8.4</ele>
      </trkpt>
      <trkpt lat="35.67739" lon="139.74959">
        <ele>10.5</ele>
      </trkpt>
      <trkpt lat="35.67734" lon="139.74991">
        <ele>13.9</ele>
      </trkpt>
      <trkpt lat="35.67742" lon="139.74993">
        <ele>12.3</ele>
      </trkpt>
      <trkpt lat="35.67741" lon="139.75008">
        <ele>12.3</ele>
      </trkpt>
      <trkpt lat="35.67739" lon="139.75017">
        <ele>12.3</ele>
      </trkpt>
      <trkpt lat="35.67738" lon="139.75024">
        <ele>12.3</ele>
      </trkpt>
      <trkpt lat="35.67734" lon="139.75024">
        <ele>12.3</ele>
      </trkpt>
      <trkpt lat="35.67735" lon="139.75014">
        <ele>12.3</ele>
      </trkpt>
      <trkpt lat="35.67725" lon="139.75014">
        <ele>12.3</ele>
      </trkpt>
      <trkpt lat="35.67729" lon="139.75065">
        <ele>12.3</ele>
      </trkpt>
      <trkpt lat="35.6773" lon="139.75065">
        <ele>12.3</ele>
      </trkpt>
      <trkpt lat="35.67732" lon="139.75068">
        <ele>12.3</ele>
      </trkpt>
      <trkpt lat="35.67734" lon="139.75102">
        <ele>12.3</ele>
      </trkpt>
      <trkpt lat="35.67734" lon="139.75102">
        <ele>12.3</ele>
      </trkpt>
      <trkpt lat="35.67732" lon="139.75068">
        <ele>12.3</ele>
      </trkpt>
      <trkpt lat="35.6773" lon="139.75065">
        <ele>12.3</ele>
      </trkpt>
      <trkpt lat="35.67729" lon="139.75065">
        <ele>12.3</ele>
      </trkpt>
      <trkpt lat="35.67725" lon="139.75014">
        <ele>12.3</ele>
      </trkpt>
      <trkpt lat="35.67735" lon="139.75014">
        <ele>12.3</ele>
      </trkpt>
      <trkpt lat="35.67734" lon="139.75024">
        <ele>12.3</ele>
      </trkpt>
      <trkpt lat="35.67738" lon="139.75024">
        <ele>12.3</ele>
      </trkpt>
      <trkpt lat="35.67739" lon="139.75017">
        <ele>12.3</ele>
      </trkpt>
      <trkpt lat="35.67741" lon="139.75008">
        <ele>12.3</ele>
      </trkpt>
      <trkpt lat="35.67742" lon="139.74993">
        <ele>12.3</ele>
      </trkpt>
      <trkpt lat="35.67734" lon="139.74991">
        <ele>13.9</ele>
      </trkpt>
      <trkpt lat="35.67727" lon="139.75057">
        <ele>21.2</ele>
      </trkpt>
      <trkpt lat="35.67726" lon="139.75085">
        <ele>23.6</ele>
      </trkpt>
      <trkpt lat="35.67728" lon="139.75111">
        <ele>23.6</ele>
      </trkpt>
      <trkpt lat="35.67738" lon="139.75163">
        <ele>22.8</ele>
      </trkpt>
      <trkpt lat="35.67752" lon="139.75213">
        <ele>15.2</ele>
      </trkpt>
      <trkpt lat="35.67771" lon="139.7527">
        <ele>8.8</ele>
      </trkpt>
      <trkpt lat="35.67771" lon="139.7527">
        <ele>8.8</ele>
      </trkpt>
      <trkpt lat="35.6778" lon="139.75302">
        <ele>2.6</ele>
      </trkpt>
      <trkpt lat="35.67782" lon="139.75315">
        <ele>-0.2</ele>
      </trkpt>
      <trkpt lat="35.67781" lon="139.75343">
        <ele>-6.2</ele>
      </trkpt>
      <trkpt lat="35.67778" lon="139.75355">
        <ele>-8.5</ele>
      </trkpt>
      <trkpt lat="35.67742" lon="139.7544">
        <ele>-19.8</ele>
      </trkpt>
      <trkpt lat="35.67742" lon="139.7544">
        <ele>-19.8</ele>
      </trkpt>
      <trkpt lat="35.67709" lon="139.7552">
        <ele>1.9</ele>
      </trkpt>
      <trkpt lat="35.67676" lon="139.75599">
        <ele>9.5</ele>
      </trkpt>
      <trkpt lat="35.67651" lon="139.7566">
        <ele>-2.3</ele>
      </trkpt>
      <trkpt lat="35.67614" lon="139.75751">
        <ele>-7.4</ele>
      </trkpt>
      <trkpt lat="35.67578" lon="139.75842">
        <ele>-3.9</ele>
      </trkpt>
      <trkpt lat="35.67578" lon="139.75842">
        <ele>-3.9</ele>
      </trkpt>
      <trkpt lat="35.67572" lon="139.75856">
        <ele>-2.8</ele>
      </trkpt>
      <trkpt lat="35.67539" lon="139.7595">
        <ele>7.8</ele>
      </trkpt>
      <trkpt lat="35.67539" lon="139.7595">
        <ele>7.8</ele>
      </trkpt>
      <trkpt lat="35.67538" lon="139.75956">
        <ele>9.0</ele>
      </trkpt>
      <trkpt lat="35.67537" lon="139.75969">
        <ele>11.5</ele>
      </trkpt>
      <trkpt lat="35.67544" lon="139.7598">
        <ele>13.5</ele>
      </trkpt>
      <trkpt lat="35.67559" lon="139.75988">
        <ele>15.4</ele>
      </trkpt>
      <trkpt lat="35.67596" lon="139.76001">
        <ele>18.3</ele>
      </trkpt>
      <trkpt lat="35.67596" lon="139.76001">
        <ele>18.3</ele>
      </trkpt>
      <trkpt lat="35.67655" lon="139.76021">
        <ele>16.4</ele>
      </trkpt>
      <trkpt lat="35.67713" lon="139.76042">
        <ele>20.6</ele>
      </trkpt>
      <trkpt lat="35.67772" lon="139.76063">
        <ele>25.9</ele>
      </trkpt>
      <trkpt lat="35.67772" lon="139.76063">
        <ele>25.9</ele>
      </trkpt>
      <trkpt lat="35.67834" lon="139.76085">
        <ele>29.9</ele>
      </trkpt>
      <trkpt lat="35.6786" lon="139.76092">
        <ele>30.8</ele>
      </trkpt>
      <trkpt lat="35.67927" lon="139.76114">
        <ele>33.4</ele>
      </trkpt>
      <trkpt lat="35.67927" lon="139.76114">
        <ele>33.4</ele>
      </trkpt>
      <trkpt lat="35.67994" lon="139.76137">
        <ele>30.8</ele>
      </trkpt>
      <trkpt lat="35.68061" lon="139.7616">
        <ele>14.8</ele>
      </trkpt>
      <trkpt lat="35.68128" lon="139.76183">
        <ele>15.8</ele>
      </trkpt>
      <trkpt lat="35.68195" lon="139.76205">
        <ele>31.3</ele>
      </trkpt>
      <trkpt lat="35.68195" lon="139.76205">
        <ele>31.3</ele>
      </trkpt>
      <trkpt lat="35.68242" lon="139.76221">
        <ele>46.6</ele>
      </trkpt>
      <trkpt lat="35.68224" lon="139.76305">
        <ele>34.9</ele>
      </trkpt>
      <trkpt lat="35.68205" lon="139.76389">
        <ele>17.7</ele>
      </trkpt>
      <trkpt lat="35.68187" lon="139.76473">
        <ele>7.2</ele>
      </trkpt>
      <trkpt lat="35.6814" lon="139.76457">
        <ele>3.2</ele>
      </trkpt>
      <trkpt lat="35.6814" lon="139.76457">
        <ele>3.2</ele>
      </trkpt>
      <trkpt lat="35.68065" lon="139.76432">
        <ele>6.9</ele>
      </trkpt>
      <trkpt lat="35.67989" lon="139.76406">
        <ele>16.6</ele>
      </trkpt>
      <trkpt lat="35.67914" lon="139.76381">
        <ele>29.4</ele>
      </trkpt>
      <trkpt lat="35.67838" lon="139.76356">
        <ele>32.9</ele>
      </trkpt>
      <trkpt lat="35.67763" lon="139.76331">
        <ele>35.9</ele>
      </trkpt>
      <trkpt lat="35.67688" lon="139.76306">
        <ele>36.9</ele>
      </trkpt>
      <trkpt lat="35.67617" lon="139.76283">
        <ele>35.6</ele>
      </trkpt>
      <trkpt lat="35.67546" lon="139.7626">
        <ele>29.3</ele>
      </trkpt>
      <trkpt lat="35.67475" lon="139.76237">
        <ele>21.4</ele>
      </trkpt>
      <trkpt lat="35.67475" lon="139.76237">
        <ele>21.4</ele>
      </trkpt>
      <trkpt lat="35.67471" lon="139.76236">
        <ele>21.1</ele>
      </trkpt>
      <trkpt lat="35.67472" lon="139.76225">
        <ele>21.4</ele>
      </trkpt>
      <trkpt lat="35.67465" lon="139.76222">
        <ele>21.0</ele>
      </trkpt>
      <trkpt lat="35.67466" lon="139.7622">
        <ele>21.1</ele>
      </trkpt>
      <trkpt lat="35.67462" lon="139.76218">
        <ele>21.0</ele>
      </trkpt>
      <trkpt lat="35.67483" lon="139.76126">
        <ele>26.4</ele>
      </trkpt>
      <trkpt lat="35.67488" lon="139.76105">
        <ele>28.9</ele>
      </trkpt>
      <trkpt lat="35.67509" lon="139.76011">
        <ele>18.8</ele>
      </trkpt>
      <trkpt lat="35.67509" lon="139.76011">
        <ele>18.8</ele>
      </trkpt>
      <trkpt lat="35.67511" lon="139.76">
        <ele>16.4</ele>
      </trkpt>
      <trkpt lat="35.67508" lon="139.75986">
        <ele>14.4</ele>
      </trkpt>
      <trkpt lat="35.67499" lon="139.75967">
        <ele>12.3</ele>
      </trkpt>
      <trkpt lat="35.6749" lon="139.75958">
        <ele>13.2</ele>
      </trkpt>
      <trkpt lat="35.67453" lon="139.75921">
        <ele>19.2</ele>
      </trkpt>
      <trkpt lat="35.67417" lon="139.75885">
        <ele>21.7</ele>
      </trkpt>
      <trkpt lat="35.67417" lon="139.75885">
        <ele>21.7</ele>
      </trkpt>
      <trkpt lat="35.67417" lon="139.75885">
        <ele>21.7</ele>
      </trkpt>
      <trkpt lat="35.67357" lon="139.75825">
        <ele>26.0</ele>
      </trkpt>
      <trkpt lat="35.67296" lon="139.75765">
        <ele>14.9</ele>
      </trkpt>
      <trkpt lat="35.67281" lon="139.75752">
        <ele>13.5</ele>
      </trkpt>
      <trkpt lat="35.67246" lon="139.7573">
        <ele>13.3</ele>
      </trkpt>
      <trkpt lat="35.67166" lon="139.75681">
        <ele>25.8</ele>
      </trkpt>
      <trkpt lat="35.67087" lon="139.75632">
        <ele>37.2</ele>
      </trkpt>
      <trkpt lat="35.67043" lon="139.75607">
        <ele>41.8</ele>
      </trkpt>
      <trkpt lat="35.67" lon="139.75582">
        <ele>45.8</ele>
      </trkpt>
      <trkpt lat="35.67" lon="139.75582">
        <ele>45.8</ele>
      </trkpt>
      <trkpt lat="35.66959" lon="139.75558">
        <ele>38.9</ele>
      </trkpt>
      <trkpt lat="35.66917" lon="139.75534">
        <ele>40.3</ele>
      </trkpt>
      <trkpt lat="35.66837" lon="139.75497">
        <ele>30.5</ele>
      </trkpt>
      <trkpt lat="35.66757" lon="139.7546">
        <ele>23.0</ele>
      </trkpt>
      <trkpt lat="35.66677" lon="139.75423">
        <ele>22.1</ele>
      </trkpt>
      <trkpt lat="35.66677" lon="139.75423">
        <ele>22.1</ele>
      </trkpt>
      <trkpt lat="35.66607" lon="139.7539">
        <ele>21.3</ele>
      </trkpt>
      <trkpt lat="35.66536" lon="139.75358">
        <ele>17.9</ele>
      </trkpt>
      <trkpt lat="35.66466" lon="139.75326">
        <ele>16.7</ele>
      </trkpt>
      <trkpt lat="35.66396" lon="139.75293">
        <ele>19.0</ele>
      </trkpt>
      <trkpt lat="35.66395" lon="139.75291">
        <ele>19.0</ele>
      </trkpt>
      <trkpt lat="35.66368" lon="139.75278">
        <ele>20.6</ele>
      </trkpt>
      <trkpt lat="35.66337" lon="139.75265">
        <ele>23.0</ele>
      </trkpt>
      <trkpt lat="35.66293" lon="139.75244">
        <ele>23.4</ele>
      </trkpt>
      <trkpt lat="35.66247" lon="139.75223">
        <ele>23.0</ele>
      </trkpt>
      <trkpt lat="35.66228" lon="139.75213">
        <ele>22.8</ele>
      </trkpt>
      <trkpt lat="35.66208" lon="139.75203">
        <ele>22.4</ele>
      </trkpt>
      <trkpt lat="35.66193" lon="139.75196">
        <ele>22.1</ele>
      </trkpt>
      <trkpt lat="35.66154" lon="139.75178">
        <ele>20.5</ele>
      </trkpt>
      <trkpt lat="35.6614" lon="139.75172">
        <ele>19.5</ele>
      </trkpt>
      <trkpt lat="35.66128" lon="139.75166">
        <ele>18.6</ele>
      </trkpt>
      <trkpt lat="35.66126" lon="139.75165">
        <ele>18.5</ele>
      </trkpt>
      <trkpt lat="35.66122" lon="139.75163">
        <ele>18.1</ele>
      </trkpt>
      <trkpt lat="35.6612" lon="139.75162">
        <ele>17.9</ele>
      </trkpt>
      <trkpt lat="35.6612" lon="139.75162">
        <ele>17.9</ele>
      </trkpt>
      <trkpt lat="35.66097" lon="139.7515">
        <ele>15.6</ele>
      </trkpt>
      <trkpt lat="35.66097" lon="139.7515">
        <ele>15.6</ele>
      </trkpt>
      <trkpt lat="35.661" lon="139.75139">
        <ele>15.0</ele>
      </trkpt>
      <trkpt lat="35.66105" lon="139.75125">
        <ele>14.5</ele>
      </trkpt>
      <trkpt lat="35.66105" lon="139.75125">
        <ele>14.5</ele>
      </trkpt>
      <trkpt lat="35.66097" lon="139.7512">
        <ele>13.4</ele>
      </trkpt>
      <trkpt lat="35.66095" lon="139.75119">
        <ele>13.1</ele>
      </trkpt>
      <trkpt lat="35.66093" lon="139.75117">
        <ele>12.8</ele>
      </trkpt>
      <trkpt lat="35.66091" lon="139.75114">
        <ele>12.3</ele>
      </trkpt>
      <trkpt lat="35.66091" lon="139.75114">
        <ele>12.3</ele>
      </trkpt>
      <trkpt lat="35.66092" lon="139.75114">
        <ele>12.4</ele>
      </trkpt>
      <trkpt lat="35.66093" lon="139.75113">
        <ele>12.4</ele>
      </trkpt>
      <trkpt lat="35.66093" lon="139.75111">
        <ele>12.3</ele>
      </trkpt>
      <trkpt lat="35.66093" lon="139.75109">
        <ele>12.1</ele>
      </trkpt>
      <trkpt lat="35.66093" lon="139.75104">
        <ele>11.8</ele>
      </trkpt>
      <trkpt lat="35.66093" lon="139.75101">
        <ele>11.5</ele>
      </trkpt>
      <trkpt lat="35.66093" lon="139.751">
        <ele>11.4</ele>
      </trkpt>
      <trkpt lat="35.66093" lon="139.75098">
        <ele>11.3</ele>
      </trkpt>
      <trkpt lat="35.66093" lon="139.75092">
        <ele>10.8</ele>
      </trkpt>
      <trkpt lat="35.66097" lon="139.75081">
        <ele>10.9</ele>
      </trkpt>
      <trkpt lat="35.66105" lon="139.75058">
        <ele>14.6</ele>
      </trkpt>
      <trkpt lat="35.66106" lon="139.75054">
        <ele>15.1</ele>
      </trkpt>
      <trkpt lat="35.66106" lon="139.75054">
        <ele>15.1</ele>
      </trkpt>
      <trkpt lat="35.66126" lon="139.75058">
        <ele>17.0</ele>
      </trkpt>
      <trkpt lat="35.66126" lon="139.75058">
        <ele>17.0</ele>
      </trkpt>
      <trkpt lat="35.66129" lon="139.75051">
        <ele>18.1</ele>
      </trkpt>
      <trkpt lat="35.66132" lon="139.75041">
        <ele>19.6</ele>
      </trkpt>
      <trkpt lat="35.66149" lon="139.74988">
        <ele>25.5</ele>
      </trkpt>
      <trkpt lat="35.66161" lon="139.74953">
        <ele>24.4</ele>
      </trkpt>
      <trkpt lat="35.66164" lon="139.74943">
        <ele>23.8</ele>
      </trkpt>
      <trkpt lat="35.66166" lon="139.74934">
        <ele>23.2</ele>
      </trkpt>
      <trkpt lat="35.66167" lon="139.74932">
        <ele>23.1</ele>
      </trkpt>
      <trkpt lat="35.66167" lon="139.74929">
        <ele>22.9</ele>
      </trkpt>
      <trkpt lat="35.66168" lon="139.74926">
        <ele>22.6</ele>
      </trkpt>
      <trkpt lat="35.66168" lon="139.74922">
        <ele>22.3</ele>
      </trkpt>
      <trkpt lat="35.66169" lon="139.74919">
        <ele>22.0</ele>
      </trkpt>
      <trkpt lat="35.66169" lon="139.74918">
        <ele>21.9</ele>
      </trkpt>
      <trkpt lat="35.6617" lon="139.74913">
        <ele>21.9</ele>
      </trkpt>
      <trkpt lat="35.66172" lon="139.74897">
        <ele>22.2</ele>
      </trkpt>
      <trkpt lat="35.66172" lon="139.74897">
        <ele>22.2</ele>
      </trkpt>
    </trkseg>
  </trk>
</gpx>
