<?xml version="1.0" encoding="UTF-8"?>
<gpx xmlns:gpxdata="http://www.cluetrust.com/XML/GPXDATA/1/0" xmlns:xsi="http://www.w3.org/2001/XMLSchema-instance" xmlns="http://www.topografix.com/GPX/1/1" version="1.1" creator="http://ridewithgps.com/" xsi:schemaLocation="http://www.topografix.com/GPX/1/1 http://www.topografix.com/GPX/1/1/gpx.xsd http://www.cluetrust.com/XML/GPXDATA/1/0 http://www.cluetrust.com/Schemas/gpxdata10.xsd">
  <metadata>
    <name>渋谷・青山 Morning Ride</name>
  </metadata>
  <trk>
    <name>渋谷・青山 Morning Ride</name>
    <trkseg>
      <trkpt lat="35.67236" lon="139.71281">
        <ele>39.8</ele>
      </trkpt>
      <trkpt lat="35.67236" lon="139.71278">
        <ele>39.8</ele>
      </trkpt>
      <trkpt lat="35.67242" lon="139.71258">
        <ele>40.0</ele>
      </trkpt>
      <trkpt lat="35.67244" lon="139.71236">
        <ele>39.5</ele>
      </trkpt>
      <trkpt lat="35.67252" lon="139.71191">
        <ele>37.8</ele>
      </trkpt>
      <trkpt lat="35.67258" lon="139.71156">
        <ele>36.0</ele>
      </trkpt>
      <trkpt lat="35.67263" lon="139.71127">
        <ele>34.1</ele>
      </trkpt>
      <trkpt lat="35.67264" lon="139.71116">
        <ele>33.4</ele>
      </trkpt>
      <trkpt lat="35.67265" lon="139.71111">
        <ele>33.1</ele>
      </trkpt>
      <trkpt lat="35.67265" lon="139.7111">
        <ele>33.0</ele>
      </trkpt>
      <trkpt lat="35.67265" lon="139.71101">
        <ele>32.5</ele>
      </trkpt>
      <trkpt lat="35.67265" lon="139.71093">
        <ele>32.0</ele>
      </trkpt>
      <trkpt lat="35.67264" lon="139.71085">
        <ele>31.6</ele>
      </trkpt>
      <trkpt lat="35.67263" lon="139.71077">
        <ele>31.3</ele>
      </trkpt>
      <trkpt lat="35.67263" lon="139.71072">
        <ele>31.1</ele>
      </trkpt>
      <trkpt lat="35.67261" lon="139.71065">
        <ele>30.8</ele>
      </trkpt>
      <trkpt lat="35.67258" lon="139.71057">
        <ele>30.6</ele>
      </trkpt>
      <trkpt lat="35.67249" lon="139.71031">
        <ele>29.5</ele>
      </trkpt>
      <trkpt lat="35.67248" lon="139.71026">
        <ele>29.3</ele>
      </trkpt>
      <trkpt lat="35.67242" lon="139.7101">
        <ele>28.8</ele>
      </trkpt>
      <trkpt lat="35.67235" lon="139.70989">
        <ele>28.3</ele>
      </trkpt>
      <trkpt lat="35.67232" lon="139.70981">
        <ele>28.2</ele>
      </trkpt>
      <trkpt lat="35.67226" lon="139.70981">
        <ele>28.5</ele>
      </trkpt>
      <trkpt lat="35.67224" lon="139.7098">
        <ele>28.5</ele>
      </trkpt>
      <trkpt lat="35.67212" lon="139.70975">
        <ele>28.9</ele>
      </trkpt>
      <trkpt lat="35.67209" lon="139.70974">
        <ele>29.0</ele>
      </trkpt>
      <trkpt lat="35.67204" lon="139.70971">
        <ele>29.2</ele>
      </trkpt>
      <trkpt lat="35.67198" lon="139.70968">
        <ele>29.3</ele>
      </trkpt>
      <trkpt lat="35.67196" lon="139.70967">
        <ele>29.4</ele>
      </trkpt>
      <trkpt lat="35.67188" lon="139.70963">
        <ele>29.6</ele>
      </trkpt>
      <trkpt lat="35.67181" lon="139.70959">
        <ele>29.8</ele>
      </trkpt>
      <trkpt lat="35.67178" lon="139.70957">
        <ele>29.9</ele>
      </trkpt>
      <trkpt lat="35.67178" lon="139.70957">
        <ele>29.9</ele>
      </trkpt>
      <trkpt lat="35.67176" lon="139.70956">
        <ele>30.0</ele>
      </trkpt>
      <trkpt lat="35.67174" lon="139.70955">
        <ele>30.0</ele>
      </trkpt>
      <trkpt lat="35.67171" lon="139.70951">
        <ele>30.0</ele>
      </trkpt>
      <trkpt lat="35.67168" lon="139.70946">
        <ele>30.0</ele>
      </trkpt>
      <trkpt lat="35.67162" lon="139.70937">
        <ele>29.8</ele>
      </trkpt>
      <trkpt lat="35.67158" lon="139.70931">
        <ele>29.6</ele>
      </trkpt>
      <trkpt lat="35.67155" lon="139.70926">
        <ele>29.5</ele>
      </trkpt>
      <trkpt lat="35.67154" lon="139.70925">
        <ele>29.5</ele>
      </trkpt>
      <trkpt lat="35.67152" lon="139.70923">
        <ele>29.4</ele>
      </trkpt>
      <trkpt lat="35.67149" lon="139.70922">
        <ele>29.4</ele>
      </trkpt>
      <trkpt lat="35.67142" lon="139.70919">
        <ele>29.4</ele>
      </trkpt>
      <trkpt lat="35.67137" lon="139.70917">
        <ele>29.4</ele>
      </trkpt>
      <trkpt lat="35.67135" lon="139.70916">
        <ele>29.4</ele>
      </trkpt>
      <trkpt lat="35.67128" lon="139.70914">
        <ele>29.4</ele>
      </trkpt>
      <trkpt lat="35.67128" lon="139.70914">
        <ele>29.4</ele>
      </trkpt>
      <trkpt lat="35.67121" lon="139.70912">
        <ele>29.5</ele>
      </trkpt>
      <trkpt lat="35.67117" lon="139.70911">
        <ele>29.5</ele>
      </trkpt>
      <trkpt lat="35.67113" lon="139.70908">
        <ele>29.5</ele>
      </trkpt>
      <trkpt lat="35.67102" lon="139.70901">
        <ele>29.4</ele>
      </trkpt>
      <trkpt lat="35.67097" lon="139.70898">
        <ele>29.4</ele>
      </trkpt>
      <trkpt lat="35.67094" lon="139.70897">
        <ele>29.4</ele>
      </trkpt>
      <trkpt lat="35.67091" lon="139.70895">
        <ele>29.4</ele>
      </trkpt>
      <trkpt lat="35.67087" lon="139.70894">
        <ele>29.4</ele>
      </trkpt>
      <trkpt lat="35.67077" lon="139.70892">
        <ele>29.4</ele>
      </trkpt>
      <trkpt lat="35.67068" lon="139.7089">
        <ele>29.4</ele>
      </trkpt>
      <trkpt lat="35.67062" lon="139.70889">
        <ele>29.4</ele>
      </trkpt>
      <trkpt lat="35.67057" lon="139.70888">
        <ele>29.4</ele>
      </trkpt>
      <trkpt lat="35.67054" lon="139.70888">
        <ele>29.4</ele>
      </trkpt>
      <trkpt lat="35.67053" lon="139.70887">
        <ele>29.4</ele>
      </trkpt>
      <trkpt lat="35.6705" lon="139.70885">
        <ele>29.3</ele>
      </trkpt>
      <trkpt lat="35.67046" lon="139.70883">
        <ele>29.3</ele>
      </trkpt>
      <trkpt lat="35.67041" lon="139.70878">
        <ele>29.1</ele>
      </trkpt>
      <trkpt lat="35.67034" lon="139.70873">
        <ele>28.9</ele>
      </trkpt>
      <trkpt lat="35.67031" lon="139.70871">
        <ele>28.8</ele>
      </trkpt>
      <trkpt lat="35.67029" lon="139.70869">
        <ele>28.8</ele>
      </trkpt>
      <trkpt lat="35.67028" lon="139.70866">
        <ele>28.6</ele>
      </trkpt>
      <trkpt lat="35.67026" lon="139.70859">
        <ele>28.4</ele>
      </trkpt>
      <trkpt lat="35.67023" lon="139.70849">
        <ele>27.9</ele>
      </trkpt>
      <trkpt lat="35.67021" lon="139.70845">
        <ele>27.7</ele>
      </trkpt>
      <trkpt lat="35.67019" lon="139.70842">
        <ele>27.6</ele>
      </trkpt>
      <trkpt lat="35.67015" lon="139.7084">
        <ele>27.5</ele>
      </trkpt>
      <trkpt lat="35.66999" lon="139.70831">
        <ele>27.1</ele>
      </trkpt>
      <trkpt lat="35.66996" lon="139.70829">
        <ele>27.2</ele>
      </trkpt>
      <trkpt lat="35.66993" lon="139.70828">
        <ele>27.3</ele>
      </trkpt>
      <trkpt lat="35.6699" lon="139.70828">
        <ele>27.3</ele>
      </trkpt>
      <trkpt lat="35.66972" lon="139.7083">
        <ele>27.1</ele>
      </trkpt>
      <trkpt lat="35.66968" lon="139.7083">
        <ele>27.1</ele>
      </trkpt>
      <trkpt lat="35.66965" lon="139.70831">
        <ele>27.0</ele>
      </trkpt>
      <trkpt lat="35.66958" lon="139.70832">
        <ele>27.0</ele>
      </trkpt>
      <trkpt lat="35.66954" lon="139.70832">
        <ele>27.0</ele>
      </trkpt>
      <trkpt lat="35.66953" lon="139.70832">
        <ele>27.0</ele>
      </trkpt>
      <trkpt lat="35.66946" lon="139.70831">
        <ele>27.0</ele>
      </trkpt>
      <trkpt lat="35.66938" lon="139.70829">
        <ele>26.9</ele>
      </trkpt>
      <trkpt lat="35.66931" lon="139.70828">
        <ele>26.8</ele>
      </trkpt>
      <trkpt lat="35.66927" lon="139.70826">
        <ele>26.7</ele>
      </trkpt>
      <trkpt lat="35.66924" lon="139.70824">
        <ele>26.6</ele>
      </trkpt>
      <trkpt lat="35.66923" lon="139.70823">
        <ele>26.6</ele>
      </trkpt>
      <trkpt lat="35.66921" lon="139.7082">
        <ele>26.4</ele>
      </trkpt>
      <trkpt lat="35.66915" lon="139.70812">
        <ele>26.0</ele>
      </trkpt>
      <trkpt lat="35.66914" lon="139.7081">
        <ele>25.9</ele>
      </trkpt>
      <trkpt lat="35.6691" lon="139.70804">
        <ele>25.6</ele>
      </trkpt>
      <trkpt lat="35.66904" lon="139.70793">
        <ele>25.2</ele>
      </trkpt>
      <trkpt lat="35.66901" lon="139.70786">
        <ele>24.9</ele>
      </trkpt>
      <trkpt lat="35.66899" lon="139.70782">
        <ele>24.8</ele>
      </trkpt>
      <trkpt lat="35.66896" lon="139.70777">
        <ele>24.6</ele>
      </trkpt>
      <trkpt lat="35.66895" lon="139.70776">
        <ele>24.6</ele>
      </trkpt>
      <trkpt lat="35.66893" lon="139.70774">
        <ele>24.6</ele>
      </trkpt>
      <trkpt lat="35.66885" lon="139.70766">
        <ele>24.4</ele>
      </trkpt>
      <trkpt lat="35.66881" lon="139.70762">
        <ele>24.3</ele>
      </trkpt>
      <trkpt lat="35.66878" lon="139.70759">
        <ele>24.3</ele>
      </trkpt>
      <trkpt lat="35.66872" lon="139.70753">
        <ele>24.2</ele>
      </trkpt>
      <trkpt lat="35.66867" lon="139.70748">
        <ele>24.2</ele>
      </trkpt>
      <trkpt lat="35.66866" lon="139.70747">
        <ele>24.3</ele>
      </trkpt>
      <trkpt lat="35.6686" lon="139.7074">
        <ele>24.6</ele>
      </trkpt>
      <trkpt lat="35.66848" lon="139.70731">
        <ele>24.8</ele>
      </trkpt>
      <trkpt lat="35.66847" lon="139.7073">
        <ele>24.9</ele>
      </trkpt>
      <trkpt lat="35.66842" lon="139.70726">
        <ele>24.9</ele>
      </trkpt>
      <trkpt lat="35.66832" lon="139.70717">
        <ele>25.0</ele>
      </trkpt>
      <trkpt lat="35.66831" lon="139.70718">
        <ele>25.1</ele>
      </trkpt>
      <trkpt lat="35.66828" lon="139.70716">
        <ele>25.2</ele>
      </trkpt>
      <trkpt lat="35.66822" lon="139.70711">
        <ele>25.4</ele>
      </trkpt>
      <trkpt lat="35.66818" lon="139.70705">
        <ele>25.4</ele>
      </trkpt>
      <trkpt lat="35.66815" lon="139.70702">
        <ele>25.5</ele>
      </trkpt>
      <trkpt lat="35.66813" lon="139.707">
        <ele>25.5</ele>
      </trkpt>
      <trkpt lat="35.66805" lon="139.70695">
        <ele>25.6</ele>
      </trkpt>
      <trkpt lat="35.66803" lon="139.70694">
        <ele>25.6</ele>
      </trkpt>
      <trkpt lat="35.66802" lon="139.70694">
        <ele>25.6</ele>
      </trkpt>
      <trkpt lat="35.668" lon="139.70694">
        <ele>25.7</ele>
      </trkpt>
      <trkpt lat="35.668" lon="139.70694">
        <ele>25.7</ele>
      </trkpt>
      <trkpt lat="35.66801" lon="139.70697">
        <ele>25.7</ele>
      </trkpt>
      <trkpt lat="35.66804" lon="139.70699">
        <ele>25.7</ele>
      </trkpt>
      <trkpt lat="35.66804" lon="139.70699">
        <ele>25.7</ele>
      </trkpt>
      <trkpt lat="35.66802" lon="139.70705">
        <ele>25.9</ele>
      </trkpt>
      <trkpt lat="35.66802" lon="139.70706">
        <ele>25.9</ele>
      </trkpt>
      <trkpt lat="35.66802" lon="139.70707">
        <ele>25.9</ele>
      </trkpt>
      <trkpt lat="35.66802" lon="139.70708">
        <ele>25.9</ele>
      </trkpt>
      <trkpt lat="35.66802" lon="139.70709">
        <ele>26.0</ele>
      </trkpt>
      <trkpt lat="35.66801" lon="139.70711">
        <ele>26.0</ele>
      </trkpt>
      <trkpt lat="35.66797" lon="139.70719">
        <ele>26.4</ele>
      </trkpt>
      <trkpt lat="35.6679" lon="139.70731">
        <ele>27.0</ele>
      </trkpt>
      <trkpt lat="35.6679" lon="139.70731">
        <ele>27.0</ele>
      </trkpt>
      <trkpt lat="35.66779" lon="139.70721">
        <ele>27.1</ele>
      </trkpt>
      <trkpt lat="35.66771" lon="139.70719">
        <ele>27.3</ele>
      </trkpt>
      <trkpt lat="35.66762" lon="139.70739">
        <ele>28.7</ele>
      </trkpt>
      <trkpt lat="35.66755" lon="139.70755">
        <ele>29.6</ele>
      </trkpt>
      <trkpt lat="35.66736" lon="139.70795">
        <ele>29.5</ele>
      </trkpt>
      <trkpt lat="35.66736" lon="139.70796">
        <ele>29.5</ele>
      </trkpt>
      <trkpt lat="35.66729" lon="139.7081">
        <ele>29.7</ele>
      </trkpt>
      <trkpt lat="35.66729" lon="139.70812">
        <ele>29.7</ele>
      </trkpt>
      <trkpt lat="35.66729" lon="139.70812">
        <ele>29.7</ele>
      </trkpt>
      <trkpt lat="35.6672" lon="139.70808">
        <ele>30.2</ele>
      </trkpt>
      <trkpt lat="35.6672" lon="139.70808">
        <ele>30.2</ele>
      </trkpt>
      <trkpt lat="35.66722" lon="139.70805">
        <ele>30.1</ele>
      </trkpt>
      <trkpt lat="35.66736" lon="139.70774">
        <ele>29.8</ele>
      </trkpt>
      <trkpt lat="35.66738" lon="139.70769">
        <ele>29.9</ele>
      </trkpt>
      <trkpt lat="35.66738" lon="139.70769">
        <ele>29.9</ele>
      </trkpt>
      <trkpt lat="35.66733" lon="139.70764">
        <ele>30.0</ele>
      </trkpt>
      <trkpt lat="35.66727" lon="139.7076">
        <ele>30.2</ele>
      </trkpt>
      <trkpt lat="35.66696" lon="139.70739">
        <ele>29.9</ele>
      </trkpt>
      <trkpt lat="35.66694" lon="139.70738">
        <ele>29.9</ele>
      </trkpt>
      <trkpt lat="35.66693" lon="139.70738">
        <ele>29.9</ele>
      </trkpt>
      <trkpt lat="35.66692" lon="139.70738">
        <ele>29.9</ele>
      </trkpt>
      <trkpt lat="35.66692" lon="139.70738">
        <ele>29.9</ele>
      </trkpt>
      <trkpt lat="35.66692" lon="139.70736">
        <ele>29.7</ele>
      </trkpt>
      <trkpt lat="35.66691" lon="139.70734">
        <ele>29.6</ele>
      </trkpt>
      <trkpt lat="35.66678" lon="139.70713">
        <ele>28.3</ele>
      </trkpt>
      <trkpt lat="35.66678" lon="139.70713">
        <ele>28.3</ele>
      </trkpt>
      <trkpt lat="35.66684" lon="139.70706">
        <ele>27.7</ele>
      </trkpt>
      <trkpt lat="35.66688" lon="139.70702">
        <ele>27.4</ele>
      </trkpt>
      <trkpt lat="35.6669" lon="139.707">
        <ele>27.3</ele>
      </trkpt>
      <trkpt lat="35.66691" lon="139.70698">
        <ele>27.1</ele>
      </trkpt>
      <trkpt lat="35.66695" lon="139.70694">
        <ele>26.9</ele>
      </trkpt>
      <trkpt lat="35.66698" lon="139.7069">
        <ele>26.6</ele>
      </trkpt>
      <trkpt lat="35.66699" lon="139.70688">
        <ele>26.4</ele>
      </trkpt>
      <trkpt lat="35.66701" lon="139.70685">
        <ele>26.2</ele>
      </trkpt>
      <trkpt lat="35.66703" lon="139.70682">
        <ele>26.0</ele>
      </trkpt>
      <trkpt lat="35.66709" lon="139.70672">
        <ele>25.4</ele>
      </trkpt>
      <trkpt lat="35.6671" lon="139.70671">
        <ele>25.3</ele>
      </trkpt>
      <trkpt lat="35.66718" lon="139.70655">
        <ele>25.2</ele>
      </trkpt>
      <trkpt lat="35.66718" lon="139.70655">
        <ele>25.2</ele>
      </trkpt>
      <trkpt lat="35.66702" lon="139.70646">
        <ele>25.2</ele>
      </trkpt>
      <trkpt lat="35.66698" lon="139.70644">
        <ele>25.1</ele>
      </trkpt>
      <trkpt lat="35.6669" lon="139.7064">
        <ele>25.0</ele>
      </trkpt>
      <trkpt lat="35.66682" lon="139.70636">
        <ele>24.9</ele>
      </trkpt>
      <trkpt lat="35.66679" lon="139.70634">
        <ele>24.8</ele>
      </trkpt>
      <trkpt lat="35.66674" lon="139.7063">
        <ele>24.7</ele>
      </trkpt>
      <trkpt lat="35.66672" lon="139.70628">
        <ele>24.7</ele>
      </trkpt>
      <trkpt lat="35.66671" lon="139.70626">
        <ele>24.6</ele>
      </trkpt>
      <trkpt lat="35.66669" lon="139.70624">
        <ele>24.5</ele>
      </trkpt>
      <trkpt lat="35.66667" lon="139.70622">
        <ele>24.5</ele>
      </trkpt>
      <trkpt lat="35.66666" lon="139.7062">
        <ele>24.5</ele>
      </trkpt>
      <trkpt lat="35.66664" lon="139.70617">
        <ele>24.5</ele>
      </trkpt>
      <trkpt lat="35.66662" lon="139.70614">
        <ele>24.5</ele>
      </trkpt>
      <trkpt lat="35.66659" lon="139.70611">
        <ele>24.6</ele>
      </trkpt>
      <trkpt lat="35.66656" lon="139.70608">
        <ele>24.6</ele>
      </trkpt>
      <trkpt lat="35.66654" lon="139.70607">
        <ele>24.7</ele>
      </trkpt>
      <trkpt lat="35.66647" lon="139.70602">
        <ele>24.7</ele>
      </trkpt>
      <trkpt lat="35.66647" lon="139.70602">
        <ele>24.7</ele>
      </trkpt>
      <trkpt lat="35.66648" lon="139.70601">
        <ele>24.7</ele>
      </trkpt>
      <trkpt lat="35.66648" lon="139.706">
        <ele>24.6</ele>
      </trkpt>
      <trkpt lat="35.66649" lon="139.70596">
        <ele>24.5</ele>
      </trkpt>
      <trkpt lat="35.66649" lon="139.70596">
        <ele>24.5</ele>
      </trkpt>
      <trkpt lat="35.66646" lon="139.70594">
        <ele>24.5</ele>
      </trkpt>
      <trkpt lat="35.66645" lon="139.70593">
        <ele>24.5</ele>
      </trkpt>
      <trkpt lat="35.66641" lon="139.7059">
        <ele>24.5</ele>
      </trkpt>
      <trkpt lat="35.6664" lon="139.70589">
        <ele>24.5</ele>
      </trkpt>
      <trkpt lat="35.66638" lon="139.70588">
        <ele>24.5</ele>
      </trkpt>
      <trkpt lat="35.66637" lon="139.70587">
        <ele>24.5</ele>
      </trkpt>
      <trkpt lat="35.66632" lon="139.70581">
        <ele>24.4</ele>
      </trkpt>
      <trkpt lat="35.6663" lon="139.70578">
        <ele>24.5</ele>
      </trkpt>
      <trkpt lat="35.66629" lon="139.70577">
        <ele>24.5</ele>
      </trkpt>
      <trkpt lat="35.66627" lon="139.70576">
        <ele>24.5</ele>
      </trkpt>
      <trkpt lat="35.66619" lon="139.70569">
        <ele>24.5</ele>
      </trkpt>
      <trkpt lat="35.66615" lon="139.70565">
        <ele>24.5</ele>
      </trkpt>
      <trkpt lat="35.6661" lon="139.7056">
        <ele>24.5</ele>
      </trkpt>
      <trkpt lat="35.66606" lon="139.70555">
        <ele>24.4</ele>
      </trkpt>
      <trkpt lat="35.66604" lon="139.70551">
        <ele>24.4</ele>
      </trkpt>
      <trkpt lat="35.66601" lon="139.70548">
        <ele>24.3</ele>
      </trkpt>
      <trkpt lat="35.66599" lon="139.70543">
        <ele>24.2</ele>
      </trkpt>
      <trkpt lat="35.66596" lon="139.70534">
        <ele>24.0</ele>
      </trkpt>
      <trkpt lat="35.66594" lon="139.7053">
        <ele>23.9</ele>
      </trkpt>
      <trkpt lat="35.66593" lon="139.70526">
        <ele>23.8</ele>
      </trkpt>
      <trkpt lat="35.6659" lon="139.70522">
        <ele>23.7</ele>
      </trkpt>
      <trkpt lat="35.66587" lon="139.70516">
        <ele>23.5</ele>
      </trkpt>
      <trkpt lat="35.66584" lon="139.70511">
        <ele>23.3</ele>
      </trkpt>
      <trkpt lat="35.66583" lon="139.70507">
        <ele>23.2</ele>
      </trkpt>
      <trkpt lat="35.66581" lon="139.70505">
        <ele>23.2</ele>
      </trkpt>
      <trkpt lat="35.66577" lon="139.70497">
        <ele>23.3</ele>
      </trkpt>
      <trkpt lat="35.66575" lon="139.70492">
        <ele>23.6</ele>
      </trkpt>
      <trkpt lat="35.66571" lon="139.70482">
        <ele>24.2</ele>
      </trkpt>
      <trkpt lat="35.66565" lon="139.70467">
        <ele>24.9</ele>
      </trkpt>
      <trkpt lat="35.66564" lon="139.70463">
        <ele>25.1</ele>
      </trkpt>
      <trkpt lat="35.66563" lon="139.70462">
        <ele>25.1</ele>
      </trkpt>
      <trkpt lat="35.6656" lon="139.70456">
        <ele>25.3</ele>
      </trkpt>
      <trkpt lat="35.66551" lon="139.70438">
        <ele>25.8</ele>
      </trkpt>
      <trkpt lat="35.66547" lon="139.70431">
        <ele>25.8</ele>
      </trkpt>
      <trkpt lat="35.66542" lon="139.7042">
        <ele>25.9</ele>
      </trkpt>
      <trkpt lat="35.6654" lon="139.70415">
        <ele>26.1</ele>
      </trkpt>
      <trkpt lat="35.66538" lon="139.70409">
        <ele>26.6</ele>
      </trkpt>
      <trkpt lat="35.66536" lon="139.70404">
        <ele>27.0</ele>
      </trkpt>
      <trkpt lat="35.66534" lon="139.70399">
        <ele>27.5</ele>
      </trkpt>
      <trkpt lat="35.6653" lon="139.70388">
        <ele>28.5</ele>
      </trkpt>
      <trkpt lat="35.66525" lon="139.7038">
        <ele>29.2</ele>
      </trkpt>
      <trkpt lat="35.66521" lon="139.70375">
        <ele>29.6</ele>
      </trkpt>
      <trkpt lat="35.66517" lon="139.7037">
        <ele>30.1</ele>
      </trkpt>
      <trkpt lat="35.66509" lon="139.70362">
        <ele>30.8</ele>
      </trkpt>
      <trkpt lat="35.66503" lon="139.70357">
        <ele>31.2</ele>
      </trkpt>
      <trkpt lat="35.66487" lon="139.70343">
        <ele>32.9</ele>
      </trkpt>
      <trkpt lat="35.66481" lon="139.70338">
        <ele>33.5</ele>
      </trkpt>
      <trkpt lat="35.6648" lon="139.70337">
        <ele>33.6</ele>
      </trkpt>
      <trkpt lat="35.6648" lon="139.70336">
        <ele>33.7</ele>
      </trkpt>
      <trkpt lat="35.66479" lon="139.70335">
        <ele>33.8</ele>
      </trkpt>
      <trkpt lat="35.66479" lon="139.70332">
        <ele>34.0</ele>
      </trkpt>
      <trkpt lat="35.66475" lon="139.70326">
        <ele>33.9</ele>
      </trkpt>
      <trkpt lat="35.66473" lon="139.70324">
        <ele>33.9</ele>
      </trkpt>
      <trkpt lat="35.66462" lon="139.70315">
        <ele>33.7</ele>
      </trkpt>
      <trkpt lat="35.66456" lon="139.70309">
        <ele>33.6</ele>
      </trkpt>
      <trkpt lat="35.66449" lon="139.70302">
        <ele>33.4</ele>
      </trkpt>
      <trkpt lat="35.66448" lon="139.70302">
        <ele>33.4</ele>
      </trkpt>
      <trkpt lat="35.66448" lon="139.70301">
        <ele>33.4</ele>
      </trkpt>
      <trkpt lat="35.66443" lon="139.70297">
        <ele>33.3</ele>
      </trkpt>
      <trkpt lat="35.66438" lon="139.70293">
        <ele>33.2</ele>
      </trkpt>
      <trkpt lat="35.66434" lon="139.70291">
        <ele>33.1</ele>
      </trkpt>
      <trkpt lat="35.6643" lon="139.70289">
        <ele>33.0</ele>
      </trkpt>
      <trkpt lat="35.66423" lon="139.70286">
        <ele>32.9</ele>
      </trkpt>
      <trkpt lat="35.66416" lon="139.70283">
        <ele>32.8</ele>
      </trkpt>
      <trkpt lat="35.66416" lon="139.70283">
        <ele>32.8</ele>
      </trkpt>
      <trkpt lat="35.66414" lon="139.7029">
        <ele>32.9</ele>
      </trkpt>
      <trkpt lat="35.66416" lon="139.70283">
        <ele>32.8</ele>
      </trkpt>
      <trkpt lat="35.66425" lon="139.70249">
        <ele>32.1</ele>
      </trkpt>
      <trkpt lat="35.66431" lon="139.70238">
        <ele>31.8</ele>
      </trkpt>
      <trkpt lat="35.66431" lon="139.70238">
        <ele>31.8</ele>
      </trkpt>
      <trkpt lat="35.66419" lon="139.70234">
        <ele>31.6</ele>
      </trkpt>
      <trkpt lat="35.66418" lon="139.70233">
        <ele>31.6</ele>
      </trkpt>
      <trkpt lat="35.66414" lon="139.70232">
        <ele>31.6</ele>
      </trkpt>
      <trkpt lat="35.66408" lon="139.70229">
        <ele>31.5</ele>
      </trkpt>
      <trkpt lat="35.66405" lon="139.70228">
        <ele>31.5</ele>
      </trkpt>
      <trkpt lat="35.664" lon="139.70226">
        <ele>31.5</ele>
      </trkpt>
      <trkpt lat="35.66397" lon="139.70225">
        <ele>31.5</ele>
      </trkpt>
      <trkpt lat="35.66392" lon="139.70224">
        <ele>31.5</ele>
      </trkpt>
      <trkpt lat="35.66388" lon="139.70223">
        <ele>31.6</ele>
      </trkpt>
      <trkpt lat="35.66381" lon="139.70222">
        <ele>31.6</ele>
      </trkpt>
      <trkpt lat="35.66376" lon="139.70221">
        <ele>31.7</ele>
      </trkpt>
      <trkpt lat="35.66368" lon="139.7022">
        <ele>31.7</ele>
      </trkpt>
      <trkpt lat="35.66365" lon="139.7022">
        <ele>31.8</ele>
      </trkpt>
      <trkpt lat="35.66365" lon="139.7022">
        <ele>31.8</ele>
      </trkpt>
      <trkpt lat="35.66365" lon="139.7022">
        <ele>31.8</ele>
      </trkpt>
      <trkpt lat="35.66353" lon="139.70219">
        <ele>31.9</ele>
      </trkpt>
      <trkpt lat="35.66353" lon="139.70219">
        <ele>31.9</ele>
      </trkpt>
      <trkpt lat="35.66353" lon="139.70209">
        <ele>32.1</ele>
      </trkpt>
      <trkpt lat="35.66353" lon="139.70199">
        <ele>32.3</ele>
      </trkpt>
      <trkpt lat="35.66353" lon="139.70186">
        <ele>32.6</ele>
      </trkpt>
      <trkpt lat="35.66351" lon="139.70174">
        <ele>33.0</ele>
      </trkpt>
      <trkpt lat="35.66349" lon="139.70166">
        <ele>33.3</ele>
      </trkpt>
      <trkpt lat="35.66345" lon="139.70156">
        <ele>34.6</ele>
      </trkpt>
      <trkpt lat="35.66333" lon="139.70124">
        <ele>39.1</ele>
      </trkpt>
      <trkpt lat="35.66329" lon="139.70119">
        <ele>39.6</ele>
      </trkpt>
      <trkpt lat="35.66321" lon="139.70109">
        <ele>40.6</ele>
      </trkpt>
      <trkpt lat="35.66316" lon="139.70103">
        <ele>41.2</ele>
      </trkpt>
      <trkpt lat="35.66311" lon="139.70099">
        <ele>41.6</ele>
      </trkpt>
      <trkpt lat="35.66302" lon="139.70091">
        <ele>42.3</ele>
      </trkpt>
      <trkpt lat="35.66297" lon="139.70089">
        <ele>42.4</ele>
      </trkpt>
      <trkpt lat="35.66295" lon="139.70087">
        <ele>42.6</ele>
      </trkpt>
      <trkpt lat="35.66292" lon="139.70086">
        <ele>42.7</ele>
      </trkpt>
      <trkpt lat="35.66288" lon="139.70085">
        <ele>42.7</ele>
      </trkpt>
      <trkpt lat="35.66283" lon="139.70084">
        <ele>42.7</ele>
      </trkpt>
      <trkpt lat="35.66275" lon="139.70083">
        <ele>42.6</ele>
      </trkpt>
      <trkpt lat="35.66267" lon="139.70083">
        <ele>42.4</ele>
      </trkpt>
      <trkpt lat="35.66221" lon="139.70082">
        <ele>42.4</ele>
      </trkpt>
      <trkpt lat="35.662" lon="139.70082">
        <ele>42.7</ele>
      </trkpt>
      <trkpt lat="35.66192" lon="139.70082">
        <ele>42.7</ele>
      </trkpt>
      <trkpt lat="35.66182" lon="139.70082">
        <ele>42.9</ele>
      </trkpt>
      <trkpt lat="35.66164" lon="139.70082">
        <ele>43.0</ele>
      </trkpt>
      <trkpt lat="35.66146" lon="139.70082">
        <ele>43.0</ele>
      </trkpt>
      <trkpt lat="35.66129" lon="139.70082">
        <ele>43.0</ele>
      </trkpt>
      <trkpt lat="35.66128" lon="139.70082">
        <ele>43.0</ele>
      </trkpt>
      <trkpt lat="35.6611" lon="139.70082">
        <ele>43.0</ele>
      </trkpt>
      <trkpt lat="35.66111" lon="139.70078">
        <ele>43.0</ele>
      </trkpt>
      <trkpt lat="35.66111" lon="139.70074">
        <ele>43.0</ele>
      </trkpt>
      <trkpt lat="35.66113" lon="139.70066">
        <ele>43.0</ele>
      </trkpt>
      <trkpt lat="35.66115" lon="139.70061">
        <ele>43.0</ele>
      </trkpt>
      <trkpt lat="35.66115" lon="139.70059">
        <ele>43.0</ele>
      </trkpt>
      <trkpt lat="35.66119" lon="139.70052">
        <ele>43.1</ele>
      </trkpt>
      <trkpt lat="35.66125" lon="139.70044">
        <ele>43.2</ele>
      </trkpt>
      <trkpt lat="35.66126" lon="139.70043">
        <ele>43.3</ele>
      </trkpt>
      <trkpt lat="35.66138" lon="139.70027">
        <ele>43.7</ele>
      </trkpt>
      <trkpt lat="35.66142" lon="139.70023">
        <ele>43.8</ele>
      </trkpt>
      <trkpt lat="35.66142" lon="139.70023">
        <ele>43.8</ele>
      </trkpt>
      <trkpt lat="35.66134" lon="139.70015">
        <ele>43.7</ele>
      </trkpt>
      <trkpt lat="35.66132" lon="139.70014">
        <ele>43.6</ele>
      </trkpt>
      <trkpt lat="35.66114" lon="139.69994">
        <ele>42.8</ele>
      </trkpt>
      <trkpt lat="35.66113" lon="139.69993">
        <ele>42.7</ele>
      </trkpt>
      <trkpt lat="35.66109" lon="139.69988">
        <ele>42.3</ele>
      </trkpt>
      <trkpt lat="35.66107" lon="139.69986">
        <ele>42.1</ele>
      </trkpt>
      <trkpt lat="35.66105" lon="139.69984">
        <ele>41.8</ele>
      </trkpt>
      <trkpt lat="35.66103" lon="139.69982">
        <ele>41.6</ele>
      </trkpt>
      <trkpt lat="35.66099" lon="139.6998">
        <ele>41.2</ele>
      </trkpt>
      <trkpt lat="35.66099" lon="139.69979">
        <ele>41.2</ele>
      </trkpt>
      <trkpt lat="35.66093" lon="139.69977">
        <ele>40.7</ele>
      </trkpt>
      <trkpt lat="35.66085" lon="139.69974">
        <ele>39.9</ele>
      </trkpt>
      <trkpt lat="35.66084" lon="139.69973">
        <ele>39.8</ele>
      </trkpt>
      <trkpt lat="35.66078" lon="139.69971">
        <ele>39.2</ele>
      </trkpt>
      <trkpt lat="35.66071" lon="139.6997">
        <ele>38.7</ele>
      </trkpt>
      <trkpt lat="35.66064" lon="139.69969">
        <ele>38.2</ele>
      </trkpt>
      <trkpt lat="35.66064" lon="139.69969">
        <ele>38.2</ele>
      </trkpt>
      <trkpt lat="35.66065" lon="139.69964">
        <ele>37.9</ele>
      </trkpt>
      <trkpt lat="35.66067" lon="139.69944">
        <ele>36.6</ele>
      </trkpt>
      <trkpt lat="35.66071" lon="139.69911">
        <ele>35.2</ele>
      </trkpt>
      <trkpt lat="35.66072" lon="139.69903">
        <ele>35.9</ele>
      </trkpt>
      <trkpt lat="35.66074" lon="139.69891">
        <ele>37.0</ele>
      </trkpt>
      <trkpt lat="35.66075" lon="139.69884">
        <ele>37.6</ele>
      </trkpt>
      <trkpt lat="35.66077" lon="139.69878">
        <ele>38.2</ele>
      </trkpt>
      <trkpt lat="35.66077" lon="139.69878">
        <ele>38.2</ele>
      </trkpt>
      <trkpt lat="35.66058" lon="139.69867">
        <ele>38.9</ele>
      </trkpt>
      <trkpt lat="35.66041" lon="139.69858">
        <ele>39.6</ele>
      </trkpt>
      <trkpt lat="35.66032" lon="139.69852">
        <ele>40.2</ele>
      </trkpt>
      <trkpt lat="35.66016" lon="139.69843">
        <ele>41.0</ele>
      </trkpt>
      <trkpt lat="35.66" lon="139.69833">
        <ele>42.0</ele>
      </trkpt>
      <trkpt lat="35.66" lon="139.69833">
        <ele>42.0</ele>
      </trkpt>
      <trkpt lat="35.66016" lon="139.69793">
        <ele>40.4</ele>
      </trkpt>
      <trkpt lat="35.66023" lon="139.69773">
        <ele>39.9</ele>
      </trkpt>
      <trkpt lat="35.66028" lon="139.69759">
        <ele>39.6</ele>
      </trkpt>
      <trkpt lat="35.66032" lon="139.69747">
        <ele>39.6</ele>
      </trkpt>
      <trkpt lat="35.66038" lon="139.6973">
        <ele>40.4</ele>
      </trkpt>
      <trkpt lat="35.66044" lon="139.69713">
        <ele>41.3</ele>
      </trkpt>
      <trkpt lat="35.66045" lon="139.6971">
        <ele>41.4</ele>
      </trkpt>
      <trkpt lat="35.66055" lon="139.69688">
        <ele>42.9</ele>
      </trkpt>
      <trkpt lat="35.66055" lon="139.69688">
        <ele>42.9</ele>
      </trkpt>
      <trkpt lat="35.66046" lon="139.69668">
        <ele>42.8</ele>
      </trkpt>
      <trkpt lat="35.66039" lon="139.69647">
        <ele>43.2</ele>
      </trkpt>
      <trkpt lat="35.66038" lon="139.69643">
        <ele>43.4</ele>
      </trkpt>
      <trkpt lat="35.66038" lon="139.69643">
        <ele>43.4</ele>
      </trkpt>
      <trkpt lat="35.6602" lon="139.69642">
        <ele>42.0</ele>
      </trkpt>
      <trkpt lat="35.66011" lon="139.69642">
        <ele>41.3</ele>
      </trkpt>
      <trkpt lat="35.66003" lon="139.69641">
        <ele>40.8</ele>
      </trkpt>
      <trkpt lat="35.65997" lon="139.69641">
        <ele>40.6</ele>
      </trkpt>
      <trkpt lat="35.65996" lon="139.69641">
        <ele>40.7</ele>
      </trkpt>
      <trkpt lat="35.65996" lon="139.69641">
        <ele>40.7</ele>
      </trkpt>
      <trkpt lat="35.65995" lon="139.6964">
        <ele>40.8</ele>
      </trkpt>
      <trkpt lat="35.65994" lon="139.6964">
        <ele>40.8</ele>
      </trkpt>
      <trkpt lat="35.65993" lon="139.69639">
        <ele>40.9</ele>
      </trkpt>
      <trkpt lat="35.65993" lon="139.69638">
        <ele>40.9</ele>
      </trkpt>
      <trkpt lat="35.65992" lon="139.69636">
        <ele>41.1</ele>
      </trkpt>
      <trkpt lat="35.65992" lon="139.69633">
        <ele>41.2</ele>
      </trkpt>
      <trkpt lat="35.6599" lon="139.69613">
        <ele>42.3</ele>
      </trkpt>
      <trkpt lat="35.65984" lon="139.69571">
        <ele>42.9</ele>
      </trkpt>
      <trkpt lat="35.65984" lon="139.69571">
        <ele>42.9</ele>
      </trkpt>
      <trkpt lat="35.65966" lon="139.69571">
        <ele>42.7</ele>
      </trkpt>
      <trkpt lat="35.65944" lon="139.6957">
        <ele>42.3</ele>
      </trkpt>
      <trkpt lat="35.65941" lon="139.69569">
        <ele>42.3</ele>
      </trkpt>
      <trkpt lat="35.65932" lon="139.69569">
        <ele>42.2</ele>
      </trkpt>
      <trkpt lat="35.65929" lon="139.69569">
        <ele>42.1</ele>
      </trkpt>
      <trkpt lat="35.65928" lon="139.69569">
        <ele>42.1</ele>
      </trkpt>
      <trkpt lat="35.65927" lon="139.6957">
        <ele>42.1</ele>
      </trkpt>
      <trkpt lat="35.65926" lon="139.6957">
        <ele>42.1</ele>
      </trkpt>
      <trkpt lat="35.65925" lon="139.69571">
        <ele>42.1</ele>
      </trkpt>
      <trkpt lat="35.65923" lon="139.69577">
        <ele>42.1</ele>
      </trkpt>
      <trkpt lat="35.65921" lon="139.69584">
        <ele>42.1</ele>
      </trkpt>
      <trkpt lat="35.65921" lon="139.69584">
        <ele>42.1</ele>
      </trkpt>
      <trkpt lat="35.6595" lon="139.69598">
        <ele>42.7</ele>
      </trkpt>
      <trkpt lat="35.6595" lon="139.69599">
        <ele>42.6</ele>
      </trkpt>
      <trkpt lat="35.6595" lon="139.69598">
        <ele>42.7</ele>
      </trkpt>
      <trkpt lat="35.6595" lon="139.69599">
        <ele>42.6</ele>
      </trkpt>
      <trkpt lat="35.65952" lon="139.69599">
        <ele>42.7</ele>
      </trkpt>
      <trkpt lat="35.65953" lon="139.696">
        <ele>42.7</ele>
      </trkpt>
      <trkpt lat="35.65953" lon="139.69601">
        <ele>42.6</ele>
      </trkpt>
      <trkpt lat="35.65953" lon="139.69602">
        <ele>42.6</ele>
      </trkpt>
      <trkpt lat="35.65953" lon="139.69603">
        <ele>42.6</ele>
      </trkpt>
      <trkpt lat="35.65953" lon="139.69604">
        <ele>42.6</ele>
      </trkpt>
      <trkpt lat="35.65949" lon="139.69613">
        <ele>42.5</ele>
      </trkpt>
      <trkpt lat="35.65934" lon="139.69639">
        <ele>42.8</ele>
      </trkpt>
      <trkpt lat="35.65928" lon="139.69649">
        <ele>43.1</ele>
      </trkpt>
      <trkpt lat="35.65913" lon="139.69676">
        <ele>44.2</ele>
      </trkpt>
      <trkpt lat="35.65912" lon="139.69678">
        <ele>44.3</ele>
      </trkpt>
      <trkpt lat="35.65907" lon="139.69695">
        <ele>44.7</ele>
      </trkpt>
      <trkpt lat="35.65906" lon="139.69697">
        <ele>44.8</ele>
      </trkpt>
      <trkpt lat="35.65887" lon="139.69716">
        <ele>47.4</ele>
      </trkpt>
      <trkpt lat="35.65881" lon="139.69722">
        <ele>48.4</ele>
      </trkpt>
      <trkpt lat="35.65877" lon="139.69728">
        <ele>49.0</ele>
      </trkpt>
      <trkpt lat="35.65875" lon="139.69732">
        <ele>49.4</ele>
      </trkpt>
      <trkpt lat="35.65875" lon="139.69732">
        <ele>49.4</ele>
      </trkpt>
      <trkpt lat="35.65881" lon="139.6974">
        <ele>48.4</ele>
      </trkpt>
      <trkpt lat="35.65893" lon="139.69759">
        <ele>45.7</ele>
      </trkpt>
      <trkpt lat="35.65895" lon="139.69763">
        <ele>45.2</ele>
      </trkpt>
      <trkpt lat="35.65898" lon="139.69768">
        <ele>44.6</ele>
      </trkpt>
      <trkpt lat="35.65901" lon="139.69774">
        <ele>44.0</ele>
      </trkpt>
      <trkpt lat="35.65905" lon="139.69785">
        <ele>43.3</ele>
      </trkpt>
      <trkpt lat="35.65909" lon="139.69795">
        <ele>42.9</ele>
      </trkpt>
      <trkpt lat="35.65909" lon="139.69797">
        <ele>42.9</ele>
      </trkpt>
      <trkpt lat="35.65915" lon="139.69818">
        <ele>42.8</ele>
      </trkpt>
      <trkpt lat="35.65918" lon="139.69828">
        <ele>42.9</ele>
      </trkpt>
      <trkpt lat="35.65919" lon="139.6983">
        <ele>42.9</ele>
      </trkpt>
      <trkpt lat="35.65921" lon="139.69839">
        <ele>42.9</ele>
      </trkpt>
      <trkpt lat="35.65926" lon="139.69858">
        <ele>42.6</ele>
      </trkpt>
      <trkpt lat="35.65928" lon="139.69866">
        <ele>42.4</ele>
      </trkpt>
      <trkpt lat="35.6593" lon="139.69873">
        <ele>42.2</ele>
      </trkpt>
      <trkpt lat="35.65934" lon="139.69887">
        <ele>41.6</ele>
      </trkpt>
      <trkpt lat="35.65936" lon="139.69894">
        <ele>41.2</ele>
      </trkpt>
      <trkpt lat="35.6594" lon="139.69909">
        <ele>40.4</ele>
      </trkpt>
      <trkpt lat="35.65944" lon="139.69923">
        <ele>39.2</ele>
      </trkpt>
      <trkpt lat="35.65946" lon="139.69931">
        <ele>38.4</ele>
      </trkpt>
      <trkpt lat="35.65953" lon="139.69952">
        <ele>36.4</ele>
      </trkpt>
      <trkpt lat="35.65955" lon="139.69971">
        <ele>35.1</ele>
      </trkpt>
      <trkpt lat="35.65956" lon="139.69979">
        <ele>34.6</ele>
      </trkpt>
      <trkpt lat="35.65956" lon="139.69987">
        <ele>34.2</ele>
      </trkpt>
      <trkpt lat="35.65956" lon="139.6999">
        <ele>34.0</ele>
      </trkpt>
      <trkpt lat="35.65956" lon="139.69993">
        <ele>33.8</ele>
      </trkpt>
      <trkpt lat="35.65956" lon="139.69995">
        <ele>33.7</ele>
      </trkpt>
      <trkpt lat="35.65955" lon="139.70001">
        <ele>33.4</ele>
      </trkpt>
      <trkpt lat="35.65955" lon="139.70005">
        <ele>33.5</ele>
      </trkpt>
      <trkpt lat="35.65955" lon="139.70009">
        <ele>33.6</ele>
      </trkpt>
      <trkpt lat="35.65954" lon="139.70014">
        <ele>33.8</ele>
      </trkpt>
      <trkpt lat="35.65953" lon="139.70023">
        <ele>34.0</ele>
      </trkpt>
      <trkpt lat="35.65951" lon="139.70034">
        <ele>34.2</ele>
      </trkpt>
      <trkpt lat="35.6595" lon="139.70045">
        <ele>34.5</ele>
      </trkpt>
      <trkpt lat="35.65949" lon="139.70055">
        <ele>34.7</ele>
      </trkpt>
      <trkpt lat="35.65948" lon="139.7006">
        <ele>34.8</ele>
      </trkpt>
      <trkpt lat="35.65948" lon="139.7006">
        <ele>34.8</ele>
      </trkpt>
      <trkpt lat="35.65947" lon="139.70077">
        <ele>35.3</ele>
      </trkpt>
      <trkpt lat="35.65946" lon="139.70084">
        <ele>35.4</ele>
      </trkpt>
      <trkpt lat="35.65945" lon="139.70101">
        <ele>35.8</ele>
      </trkpt>
      <trkpt lat="35.65945" lon="139.70108">
        <ele>36.0</ele>
      </trkpt>
      <trkpt lat="35.65945" lon="139.70115">
        <ele>36.2</ele>
      </trkpt>
      <trkpt lat="35.65945" lon="139.70126">
        <ele>36.5</ele>
      </trkpt>
      <trkpt lat="35.65945" lon="139.70127">
        <ele>36.6</ele>
      </trkpt>
      <trkpt lat="35.65945" lon="139.70135">
        <ele>36.8</ele>
      </trkpt>
      <trkpt lat="35.65945" lon="139.70143">
        <ele>37.0</ele>
      </trkpt>
      <trkpt lat="35.65946" lon="139.70151">
        <ele>37.2</ele>
      </trkpt>
      <trkpt lat="35.65946" lon="139.70159">
        <ele>37.4</ele>
      </trkpt>
      <trkpt lat="35.65947" lon="139.70166">
        <ele>37.5</ele>
      </trkpt>
      <trkpt lat="35.65947" lon="139.7017">
        <ele>37.6</ele>
      </trkpt>
      <trkpt lat="35.65948" lon="139.70181">
        <ele>37.8</ele>
      </trkpt>
      <trkpt lat="35.65949" lon="139.70186">
        <ele>38.0</ele>
      </trkpt>
      <trkpt lat="35.6595" lon="139.70202">
        <ele>38.3</ele>
      </trkpt>
      <trkpt lat="35.65951" lon="139.70213">
        <ele>38.4</ele>
      </trkpt>
      <trkpt lat="35.65953" lon="139.70225">
        <ele>38.5</ele>
      </trkpt>
      <trkpt lat="35.65954" lon="139.70237">
        <ele>38.6</ele>
      </trkpt>
      <trkpt lat="35.65956" lon="139.70246">
        <ele>38.7</ele>
      </trkpt>
      <trkpt lat="35.65956" lon="139.70246">
        <ele>38.7</ele>
      </trkpt>
      <trkpt lat="35.65941" lon="139.70253">
        <ele>38.9</ele>
      </trkpt>
      <trkpt lat="35.65921" lon="139.70262">
        <ele>37.6</ele>
      </trkpt>
      <trkpt lat="35.65908" lon="139.70268">
        <ele>36.8</ele>
      </trkpt>
      <trkpt lat="35.65881" lon="139.70282">
        <ele>35.1</ele>
      </trkpt>
      <trkpt lat="35.65876" lon="139.70284">
        <ele>34.8</ele>
      </trkpt>
      <trkpt lat="35.6586" lon="139.70291">
        <ele>33.9</ele>
      </trkpt>
      <trkpt lat="35.65852" lon="139.70295">
        <ele>33.7</ele>
      </trkpt>
      <trkpt lat="35.65837" lon="139.70302">
        <ele>33.5</ele>
      </trkpt>
      <trkpt lat="35.65821" lon="139.70311">
        <ele>34.0</ele>
      </trkpt>
      <trkpt lat="35.65816" lon="139.70313">
        <ele>34.1</ele>
      </trkpt>
      <trkpt lat="35.65812" lon="139.70315">
        <ele>34.2</ele>
      </trkpt>
      <trkpt lat="35.65809" lon="139.70318">
        <ele>34.4</ele>
      </trkpt>
      <trkpt lat="35.65802" lon="139.70325">
        <ele>34.6</ele>
      </trkpt>
      <trkpt lat="35.65802" lon="139.70325">
        <ele>34.6</ele>
      </trkpt>
      <trkpt lat="35.65801" lon="139.70325">
        <ele>34.6</ele>
      </trkpt>
      <trkpt lat="35.65798" lon="139.70329">
        <ele>34.8</ele>
      </trkpt>
      <trkpt lat="35.65786" lon="139.7034">
        <ele>35.2</ele>
      </trkpt>
      <trkpt lat="35.6578" lon="139.70346">
        <ele>35.6</ele>
      </trkpt>
      <trkpt lat="35.65775" lon="139.70352">
        <ele>35.9</ele>
      </trkpt>
      <trkpt lat="35.65774" lon="139.70353">
        <ele>36.0</ele>
      </trkpt>
      <trkpt lat="35.65765" lon="139.70365">
        <ele>36.7</ele>
      </trkpt>
      <trkpt lat="35.65752" lon="139.70381">
        <ele>37.8</ele>
      </trkpt>
      <trkpt lat="35.65739" lon="139.704">
        <ele>38.8</ele>
      </trkpt>
      <trkpt lat="35.65715" lon="139.70431">
        <ele>37.6</ele>
      </trkpt>
      <trkpt lat="35.65715" lon="139.70431">
        <ele>37.6</ele>
      </trkpt>
      <trkpt lat="35.65719" lon="139.70436">
        <ele>38.2</ele>
      </trkpt>
      <trkpt lat="35.65721" lon="139.70439">
        <ele>38.5</ele>
      </trkpt>
      <trkpt lat="35.65728" lon="139.70447">
        <ele>39.6</ele>
      </trkpt>
      <trkpt lat="35.65735" lon="139.70455">
        <ele>40.6</ele>
      </trkpt>
      <trkpt lat="35.65741" lon="139.70461">
        <ele>41.4</ele>
      </trkpt>
      <trkpt lat="35.65743" lon="139.70464">
        <ele>41.7</ele>
      </trkpt>
      <trkpt lat="35.65749" lon="139.70471">
        <ele>42.5</ele>
      </trkpt>
      <trkpt lat="35.6575" lon="139.70474">
        <ele>42.7</ele>
      </trkpt>
      <trkpt lat="35.6575" lon="139.70475">
        <ele>42.7</ele>
      </trkpt>
      <trkpt lat="35.65751" lon="139.70476">
        <ele>42.8</ele>
      </trkpt>
      <trkpt lat="35.65751" lon="139.70478">
        <ele>42.8</ele>
      </trkpt>
      <trkpt lat="35.65751" lon="139.70536">
        <ele>44.8</ele>
      </trkpt>
      <trkpt lat="35.65751" lon="139.70541">
        <ele>45.1</ele>
      </trkpt>
      <trkpt lat="35.65751" lon="139.70554">
        <ele>45.7</ele>
      </trkpt>
      <trkpt lat="35.65751" lon="139.70557">
        <ele>45.9</ele>
      </trkpt>
      <trkpt lat="35.6575" lon="139.7056">
        <ele>45.9</ele>
      </trkpt>
      <trkpt lat="35.65749" lon="139.70567">
        <ele>46.1</ele>
      </trkpt>
      <trkpt lat="35.65748" lon="139.70572">
        <ele>46.1</ele>
      </trkpt>
      <trkpt lat="35.65748" lon="139.70574">
        <ele>46.2</ele>
      </trkpt>
      <trkpt lat="35.65747" lon="139.70576">
        <ele>46.2</ele>
      </trkpt>
      <trkpt lat="35.65745" lon="139.70582">
        <ele>46.1</ele>
      </trkpt>
      <trkpt lat="35.65744" lon="139.70586">
        <ele>46.0</ele>
      </trkpt>
      <trkpt lat="35.65743" lon="139.70589">
        <ele>45.8</ele>
      </trkpt>
      <trkpt lat="35.65741" lon="139.70592">
        <ele>45.5</ele>
      </trkpt>
      <trkpt lat="35.65739" lon="139.70595">
        <ele>45.1</ele>
      </trkpt>
      <trkpt lat="35.65738" lon="139.70598">
        <ele>45.0</ele>
      </trkpt>
      <trkpt lat="35.65737" lon="139.706">
        <ele>44.8</ele>
      </trkpt>
      <trkpt lat="35.65734" lon="139.70604">
        <ele>44.4</ele>
      </trkpt>
      <trkpt lat="35.65732" lon="139.70608">
        <ele>44.1</ele>
      </trkpt>
      <trkpt lat="35.65729" lon="139.70614">
        <ele>43.7</ele>
      </trkpt>
      <trkpt lat="35.65727" lon="139.70619">
        <ele>43.4</ele>
      </trkpt>
      <trkpt lat="35.65725" lon="139.70627">
        <ele>43.2</ele>
      </trkpt>
      <trkpt lat="35.65723" lon="139.70632">
        <ele>43.0</ele>
      </trkpt>
      <trkpt lat="35.65722" lon="139.70639">
        <ele>43.0</ele>
      </trkpt>
      <trkpt lat="35.65721" lon="139.70649">
        <ele>43.0</ele>
      </trkpt>
      <trkpt lat="35.65721" lon="139.70676">
        <ele>42.9</ele>
      </trkpt>
      <trkpt lat="35.65721" lon="139.70678">
        <ele>42.9</ele>
      </trkpt>
      <trkpt lat="35.6572" lon="139.70681">
        <ele>42.7</ele>
      </trkpt>
      <trkpt lat="35.6572" lon="139.70683">
        <ele>42.6</ele>
      </trkpt>
      <trkpt lat="35.6572" lon="139.70685">
        <ele>42.6</ele>
      </trkpt>
      <trkpt lat="35.65718" lon="139.70689">
        <ele>42.3</ele>
      </trkpt>
      <trkpt lat="35.65713" lon="139.70698">
        <ele>41.6</ele>
      </trkpt>
      <trkpt lat="35.65701" lon="139.70719">
        <ele>40.3</ele>
      </trkpt>
      <trkpt lat="35.65693" lon="139.70733">
        <ele>39.5</ele>
      </trkpt>
      <trkpt lat="35.65682" lon="139.70752">
        <ele>38.6</ele>
      </trkpt>
      <trkpt lat="35.65682" lon="139.70752">
        <ele>38.6</ele>
      </trkpt>
      <trkpt lat="35.65698" lon="139.70761">
        <ele>38.8</ele>
      </trkpt>
      <trkpt lat="35.65723" lon="139.70775">
        <ele>39.9</ele>
      </trkpt>
      <trkpt lat="35.65733" lon="139.70782">
        <ele>40.6</ele>
      </trkpt>
      <trkpt lat="35.65741" lon="139.70786">
        <ele>41.2</ele>
      </trkpt>
      <trkpt lat="35.65748" lon="139.70791">
        <ele>41.8</ele>
      </trkpt>
      <trkpt lat="35.6578" lon="139.70809">
        <ele>44.9</ele>
      </trkpt>
      <trkpt lat="35.65785" lon="139.70812">
        <ele>45.4</ele>
      </trkpt>
      <trkpt lat="35.65791" lon="139.70816">
        <ele>45.9</ele>
      </trkpt>
      <trkpt lat="35.65797" lon="139.70819">
        <ele>46.3</ele>
      </trkpt>
      <trkpt lat="35.65798" lon="139.7082">
        <ele>46.4</ele>
      </trkpt>
      <trkpt lat="35.65803" lon="139.70823">
        <ele>46.8</ele>
      </trkpt>
      <trkpt lat="35.65804" lon="139.70824">
        <ele>46.8</ele>
      </trkpt>
      <trkpt lat="35.65813" lon="139.70829">
        <ele>47.4</ele>
      </trkpt>
      <trkpt lat="35.65824" lon="139.70835">
        <ele>48.1</ele>
      </trkpt>
      <trkpt lat="35.65837" lon="139.70843">
        <ele>48.0</ele>
      </trkpt>
      <trkpt lat="35.6584" lon="139.70845">
        <ele>47.7</ele>
      </trkpt>
      <trkpt lat="35.6585" lon="139.70851">
        <ele>46.8</ele>
      </trkpt>
      <trkpt lat="35.65866" lon="139.7086">
        <ele>45.6</ele>
      </trkpt>
      <trkpt lat="35.65871" lon="139.70862">
        <ele>45.4</ele>
      </trkpt>
      <trkpt lat="35.65874" lon="139.70864">
        <ele>45.1</ele>
      </trkpt>
      <trkpt lat="35.65876" lon="139.70865">
        <ele>45.0</ele>
      </trkpt>
      <trkpt lat="35.65881" lon="139.70868">
        <ele>44.7</ele>
      </trkpt>
      <trkpt lat="35.65884" lon="139.70869">
        <ele>44.5</ele>
      </trkpt>
      <trkpt lat="35.65893" lon="139.70873">
        <ele>44.1</ele>
      </trkpt>
      <trkpt lat="35.65904" lon="139.70879">
        <ele>43.5</ele>
      </trkpt>
      <trkpt lat="35.65923" lon="139.70887">
        <ele>42.9</ele>
      </trkpt>
      <trkpt lat="35.65926" lon="139.70888">
        <ele>42.9</ele>
      </trkpt>
      <trkpt lat="35.65927" lon="139.70889">
        <ele>42.9</ele>
      </trkpt>
      <trkpt lat="35.65931" lon="139.7089">
        <ele>43.0</ele>
      </trkpt>
      <trkpt lat="35.65936" lon="139.70891">
        <ele>43.0</ele>
      </trkpt>
      <trkpt lat="35.65944" lon="139.70892">
        <ele>43.2</ele>
      </trkpt>
      <trkpt lat="35.65951" lon="139.70892">
        <ele>43.4</ele>
      </trkpt>
      <trkpt lat="35.65953" lon="139.70892">
        <ele>43.4</ele>
      </trkpt>
      <trkpt lat="35.65967" lon="139.70893">
        <ele>43.8</ele>
      </trkpt>
      <trkpt lat="35.65991" lon="139.70895">
        <ele>44.5</ele>
      </trkpt>
      <trkpt lat="35.65997" lon="139.70895">
        <ele>44.7</ele>
      </trkpt>
      <trkpt lat="35.65998" lon="139.70896">
        <ele>44.7</ele>
      </trkpt>
      <trkpt lat="35.66002" lon="139.70895">
        <ele>44.6</ele>
      </trkpt>
      <trkpt lat="35.66006" lon="139.70895">
        <ele>44.3</ele>
      </trkpt>
      <trkpt lat="35.66012" lon="139.70895">
        <ele>44.0</ele>
      </trkpt>
      <trkpt lat="35.66015" lon="139.70894">
        <ele>43.8</ele>
      </trkpt>
      <trkpt lat="35.6602" lon="139.70893">
        <ele>43.4</ele>
      </trkpt>
      <trkpt lat="35.66025" lon="139.70892">
        <ele>43.1</ele>
      </trkpt>
      <trkpt lat="35.66034" lon="139.70888">
        <ele>42.6</ele>
      </trkpt>
      <trkpt lat="35.66042" lon="139.70885">
        <ele>42.2</ele>
      </trkpt>
      <trkpt lat="35.66047" lon="139.70884">
        <ele>42.0</ele>
      </trkpt>
      <trkpt lat="35.66058" lon="139.7088">
        <ele>41.5</ele>
      </trkpt>
      <trkpt lat="35.66066" lon="139.70877">
        <ele>41.2</ele>
      </trkpt>
      <trkpt lat="35.66073" lon="139.70874">
        <ele>41.0</ele>
      </trkpt>
      <trkpt lat="35.66086" lon="139.70869">
        <ele>41.0</ele>
      </trkpt>
      <trkpt lat="35.66089" lon="139.70868">
        <ele>41.1</ele>
      </trkpt>
      <trkpt lat="35.66092" lon="139.70867">
        <ele>41.3</ele>
      </trkpt>
      <trkpt lat="35.66095" lon="139.70865">
        <ele>41.5</ele>
      </trkpt>
      <trkpt lat="35.66098" lon="139.70864">
        <ele>41.7</ele>
      </trkpt>
      <trkpt lat="35.66103" lon="139.70861">
        <ele>42.0</ele>
      </trkpt>
      <trkpt lat="35.66107" lon="139.70858">
        <ele>42.4</ele>
      </trkpt>
      <trkpt lat="35.66112" lon="139.70854">
        <ele>42.8</ele>
      </trkpt>
      <trkpt lat="35.66116" lon="139.70851">
        <ele>43.1</ele>
      </trkpt>
      <trkpt lat="35.66118" lon="139.70849">
        <ele>43.3</ele>
      </trkpt>
      <trkpt lat="35.6614" lon="139.70831">
        <ele>45.1</ele>
      </trkpt>
      <trkpt lat="35.6615" lon="139.70822">
        <ele>45.7</ele>
      </trkpt>
      <trkpt lat="35.66153" lon="139.7082">
        <ele>45.9</ele>
      </trkpt>
      <trkpt lat="35.66163" lon="139.70811">
        <ele>46.2</ele>
      </trkpt>
      <trkpt lat="35.66163" lon="139.70811">
        <ele>46.2</ele>
      </trkpt>
      <trkpt lat="35.66178" lon="139.70834">
        <ele>46.2</ele>
      </trkpt>
      <trkpt lat="35.66178" lon="139.70834">
        <ele>46.2</ele>
      </trkpt>
      <trkpt lat="35.66215" lon="139.70895">
        <ele>43.9</ele>
      </trkpt>
      <trkpt lat="35.6622" lon="139.70903">
        <ele>43.6</ele>
      </trkpt>
      <trkpt lat="35.66229" lon="139.70917">
        <ele>43.2</ele>
      </trkpt>
      <trkpt lat="35.66235" lon="139.70928">
        <ele>43.6</ele>
      </trkpt>
      <trkpt lat="35.66244" lon="139.70943">
        <ele>44.1</ele>
      </trkpt>
      <trkpt lat="35.66252" lon="139.70956">
        <ele>44.4</ele>
      </trkpt>
      <trkpt lat="35.66257" lon="139.70964">
        <ele>44.2</ele>
      </trkpt>
      <trkpt lat="35.66262" lon="139.70972">
        <ele>44.1</ele>
      </trkpt>
      <trkpt lat="35.66266" lon="139.70979">
        <ele>44.0</ele>
      </trkpt>
      <trkpt lat="35.66279" lon="139.71001">
        <ele>43.6</ele>
      </trkpt>
      <trkpt lat="35.66294" lon="139.71025">
        <ele>43.8</ele>
      </trkpt>
      <trkpt lat="35.66301" lon="139.71036">
        <ele>44.1</ele>
      </trkpt>
      <trkpt lat="35.66303" lon="139.71039">
        <ele>44.2</ele>
      </trkpt>
      <trkpt lat="35.66317" lon="139.71053">
        <ele>44.9</ele>
      </trkpt>
      <trkpt lat="35.6632" lon="139.71057">
        <ele>45.1</ele>
      </trkpt>
      <trkpt lat="35.66334" lon="139.71071">
        <ele>46.1</ele>
      </trkpt>
      <trkpt lat="35.66347" lon="139.71083">
        <ele>46.2</ele>
      </trkpt>
      <trkpt lat="35.66348" lon="139.71085">
        <ele>46.2</ele>
      </trkpt>
      <trkpt lat="35.66351" lon="139.71087">
        <ele>46.0</ele>
      </trkpt>
      <trkpt lat="35.66361" lon="139.71097">
        <ele>45.7</ele>
      </trkpt>
      <trkpt lat="35.66374" lon="139.71111">
        <ele>45.4</ele>
      </trkpt>
      <trkpt lat="35.66387" lon="139.71124">
        <ele>45.1</ele>
      </trkpt>
      <trkpt lat="35.66399" lon="139.71135">
        <ele>44.8</ele>
      </trkpt>
      <trkpt lat="35.66402" lon="139.71138">
        <ele>44.7</ele>
      </trkpt>
      <trkpt lat="35.66415" lon="139.71151">
        <ele>44.5</ele>
      </trkpt>
      <trkpt lat="35.66421" lon="139.71157">
        <ele>44.8</ele>
      </trkpt>
      <trkpt lat="35.6643" lon="139.71166">
        <ele>45.3</ele>
      </trkpt>
      <trkpt lat="35.66439" lon="139.71174">
        <ele>45.5</ele>
      </trkpt>
      <trkpt lat="35.66454" lon="139.71187">
        <ele>45.8</ele>
      </trkpt>
      <trkpt lat="35.66472" lon="139.71204">
        <ele>45.3</ele>
      </trkpt>
      <trkpt lat="35.66474" lon="139.71206">
        <ele>45.3</ele>
      </trkpt>
      <trkpt lat="35.66475" lon="139.71208">
        <ele>45.3</ele>
      </trkpt>
      <trkpt lat="35.66495" lon="139.71225">
        <ele>44.8</ele>
      </trkpt>
      <trkpt lat="35.66516" lon="139.71245">
        <ele>44.4</ele>
      </trkpt>
      <trkpt lat="35.66524" lon="139.71252">
        <ele>44.2</ele>
      </trkpt>
      <trkpt lat="35.6654" lon="139.71266">
        <ele>43.9</ele>
      </trkpt>
      <trkpt lat="35.66555" lon="139.71279">
        <ele>42.9</ele>
      </trkpt>
      <trkpt lat="35.66559" lon="139.71282">
        <ele>42.7</ele>
      </trkpt>
      <trkpt lat="35.66563" lon="139.71285">
        <ele>42.5</ele>
      </trkpt>
      <trkpt lat="35.66566" lon="139.71288">
        <ele>42.3</ele>
      </trkpt>
      <trkpt lat="35.66573" lon="139.71295">
        <ele>42.0</ele>
      </trkpt>
      <trkpt lat="35.66579" lon="139.71299">
        <ele>41.8</ele>
      </trkpt>
      <trkpt lat="35.66585" lon="139.71305">
        <ele>41.6</ele>
      </trkpt>
      <trkpt lat="35.66594" lon="139.71312">
        <ele>41.3</ele>
      </trkpt>
      <trkpt lat="35.66601" lon="139.71319">
        <ele>41.1</ele>
      </trkpt>
      <trkpt lat="35.6663" lon="139.71345">
        <ele>39.8</ele>
      </trkpt>
      <trkpt lat="35.66645" lon="139.71358">
        <ele>39.6</ele>
      </trkpt>
      <trkpt lat="35.66646" lon="139.7136">
        <ele>39.6</ele>
      </trkpt>
      <trkpt lat="35.66691" lon="139.71399">
        <ele>41.5</ele>
      </trkpt>
      <trkpt lat="35.667" lon="139.71407">
        <ele>42.0</ele>
      </trkpt>
      <trkpt lat="35.66702" lon="139.71409">
        <ele>42.1</ele>
      </trkpt>
      <trkpt lat="35.6671" lon="139.71416">
        <ele>42.5</ele>
      </trkpt>
      <trkpt lat="35.66749" lon="139.71452">
        <ele>43.8</ele>
      </trkpt>
      <trkpt lat="35.66774" lon="139.71475">
        <ele>44.1</ele>
      </trkpt>
      <trkpt lat="35.66778" lon="139.71478">
        <ele>44.1</ele>
      </trkpt>
      <trkpt lat="35.66793" lon="139.71491">
        <ele>44.4</ele>
      </trkpt>
      <trkpt lat="35.66803" lon="139.715">
        <ele>44.4</ele>
      </trkpt>
      <trkpt lat="35.66807" lon="139.71504">
        <ele>44.6</ele>
      </trkpt>
      <trkpt lat="35.66811" lon="139.71507">
        <ele>44.9</ele>
      </trkpt>
      <trkpt lat="35.66818" lon="139.71513">
        <ele>45.4</ele>
      </trkpt>
      <trkpt lat="35.66823" lon="139.71517">
        <ele>45.8</ele>
      </trkpt>
      <trkpt lat="35.66829" lon="139.71522">
        <ele>46.3</ele>
      </trkpt>
      <trkpt lat="35.66848" lon="139.71536">
        <ele>48.4</ele>
      </trkpt>
      <trkpt lat="35.6686" lon="139.71545">
        <ele>49.8</ele>
      </trkpt>
      <trkpt lat="35.66869" lon="139.71552">
        <ele>50.9</ele>
      </trkpt>
      <trkpt lat="35.66874" lon="139.71555">
        <ele>51.4</ele>
      </trkpt>
      <trkpt lat="35.66875" lon="139.71555">
        <ele>51.4</ele>
      </trkpt>
      <trkpt lat="35.66912" lon="139.71584">
        <ele>55.8</ele>
      </trkpt>
      <trkpt lat="35.66919" lon="139.71588">
        <ele>55.8</ele>
      </trkpt>
      <trkpt lat="35.66923" lon="139.71591">
        <ele>55.5</ele>
      </trkpt>
      <trkpt lat="35.66925" lon="139.71594">
        <ele>55.4</ele>
      </trkpt>
      <trkpt lat="35.66929" lon="139.71597">
        <ele>55.1</ele>
      </trkpt>
      <trkpt lat="35.66933" lon="139.71601">
        <ele>54.9</ele>
      </trkpt>
      <trkpt lat="35.66942" lon="139.71609">
        <ele>54.5</ele>
      </trkpt>
      <trkpt lat="35.66946" lon="139.71612">
        <ele>54.4</ele>
      </trkpt>
      <trkpt lat="35.66958" lon="139.71623">
        <ele>54.2</ele>
      </trkpt>
      <trkpt lat="35.66964" lon="139.71628">
        <ele>54.2</ele>
      </trkpt>
      <trkpt lat="35.66972" lon="139.71635">
        <ele>54.3</ele>
      </trkpt>
      <trkpt lat="35.66981" lon="139.71643">
        <ele>54.5</ele>
      </trkpt>
      <trkpt lat="35.66988" lon="139.7165">
        <ele>54.9</ele>
      </trkpt>
      <trkpt lat="35.66996" lon="139.71658">
        <ele>55.4</ele>
      </trkpt>
      <trkpt lat="35.67" lon="139.71663">
        <ele>55.7</ele>
      </trkpt>
      <trkpt lat="35.67008" lon="139.71674">
        <ele>55.2</ele>
      </trkpt>
      <trkpt lat="35.67013" lon="139.71681">
        <ele>54.8</ele>
      </trkpt>
      <trkpt lat="35.67019" lon="139.71691">
        <ele>54.4</ele>
      </trkpt>
      <trkpt lat="35.67026" lon="139.71711">
        <ele>54.2</ele>
      </trkpt>
      <trkpt lat="35.67027" lon="139.71713">
        <ele>54.2</ele>
      </trkpt>
      <trkpt lat="35.67029" lon="139.71718">
        <ele>54.3</ele>
      </trkpt>
      <trkpt lat="35.67038" lon="139.71742">
        <ele>54.7</ele>
      </trkpt>
      <trkpt lat="35.67041" lon="139.71752">
        <ele>54.9</ele>
      </trkpt>
      <trkpt lat="35.6706" lon="139.71807">
        <ele>56.2</ele>
      </trkpt>
      <trkpt lat="35.67077" lon="139.71854">
        <ele>55.8</ele>
      </trkpt>
      <trkpt lat="35.67083" lon="139.71869">
        <ele>53.7</ele>
      </trkpt>
      <trkpt lat="35.67093" lon="139.71893">
        <ele>47.8</ele>
      </trkpt>
      <trkpt lat="35.67098" lon="139.71903">
        <ele>45.4</ele>
      </trkpt>
      <trkpt lat="35.67103" lon="139.71915">
        <ele>42.7</ele>
      </trkpt>
      <trkpt lat="35.67125" lon="139.71967">
        <ele>46.2</ele>
      </trkpt>
      <trkpt lat="35.6713" lon="139.71978">
        <ele>47.0</ele>
      </trkpt>
      <trkpt lat="35.67135" lon="139.71989">
        <ele>47.8</ele>
      </trkpt>
      <trkpt lat="35.67144" lon="139.72011">
        <ele>48.3</ele>
      </trkpt>
      <trkpt lat="35.67158" lon="139.72041">
        <ele>48.2</ele>
      </trkpt>
      <trkpt lat="35.67162" lon="139.72051">
        <ele>48.5</ele>
      </trkpt>
      <trkpt lat="35.67164" lon="139.72057">
        <ele>48.7</ele>
      </trkpt>
      <trkpt lat="35.6718" lon="139.72102">
        <ele>49.1</ele>
      </trkpt>
      <trkpt lat="35.6718" lon="139.72102">
        <ele>49.1</ele>
      </trkpt>
      <trkpt lat="35.67231" lon="139.72077">
        <ele>46.3</ele>
      </trkpt>
      <trkpt lat="35.67241" lon="139.72072">
        <ele>45.3</ele>
      </trkpt>
      <trkpt lat="35.67248" lon="139.72068">
        <ele>44.5</ele>
      </trkpt>
      <trkpt lat="35.67313" lon="139.72037">
        <ele>43.6</ele>
      </trkpt>
      <trkpt lat="35.67327" lon="139.7203">
        <ele>43.3</ele>
      </trkpt>
      <trkpt lat="35.67383" lon="139.72002">
        <ele>40.1</ele>
      </trkpt>
      <trkpt lat="35.67394" lon="139.71997">
        <ele>39.9</ele>
      </trkpt>
      <trkpt lat="35.67427" lon="139.71981">
        <ele>39.4</ele>
      </trkpt>
      <trkpt lat="35.67447" lon="139.71972">
        <ele>39.7</ele>
      </trkpt>
      <trkpt lat="35.67464" lon="139.71963">
        <ele>40.6</ele>
      </trkpt>
      <trkpt lat="35.67489" lon="139.71951">
        <ele>42.6</ele>
      </trkpt>
      <trkpt lat="35.67493" lon="139.71949">
        <ele>43.1</ele>
      </trkpt>
      <trkpt lat="35.67513" lon="139.71939">
        <ele>42.8</ele>
      </trkpt>
      <trkpt lat="35.67513" lon="139.71939">
        <ele>42.8</ele>
      </trkpt>
      <trkpt lat="35.67509" lon="139.71918">
        <ele>45.3</ele>
      </trkpt>
      <trkpt lat="35.67508" lon="139.71907">
        <ele>43.4</ele>
      </trkpt>
      <trkpt lat="35.67507" lon="139.71899">
        <ele>41.8</ele>
      </trkpt>
      <trkpt lat="35.67507" lon="139.71894">
        <ele>40.7</ele>
      </trkpt>
      <trkpt lat="35.67507" lon="139.7189">
        <ele>39.9</ele>
      </trkpt>
      <trkpt lat="35.67507" lon="139.71886">
        <ele>39.0</ele>
      </trkpt>
      <trkpt lat="35.67507" lon="139.71883">
        <ele>38.3</ele>
      </trkpt>
      <trkpt lat="35.67507" lon="139.71878">
        <ele>37.2</ele>
      </trkpt>
      <trkpt lat="35.67508" lon="139.7187">
        <ele>35.3</ele>
      </trkpt>
      <trkpt lat="35.67509" lon="139.71859">
        <ele>32.8</ele>
      </trkpt>
      <trkpt lat="35.67513" lon="139.71844">
        <ele>29.0</ele>
      </trkpt>
      <trkpt lat="35.67515" lon="139.71838">
        <ele>27.6</ele>
      </trkpt>
      <trkpt lat="35.67516" lon="139.71834">
        <ele>26.6</ele>
      </trkpt>
      <trkpt lat="35.67518" lon="139.71829">
        <ele>26.8</ele>
      </trkpt>
      <trkpt lat="35.6752" lon="139.71824">
        <ele>27.2</ele>
      </trkpt>
      <trkpt lat="35.67523" lon="139.71817">
        <ele>27.8</ele>
      </trkpt>
      <trkpt lat="35.67525" lon="139.71812">
        <ele>28.3</ele>
      </trkpt>
      <trkpt lat="35.67529" lon="139.71807">
        <ele>28.7</ele>
      </trkpt>
      <trkpt lat="35.67532" lon="139.71801">
        <ele>29.4</ele>
      </trkpt>
      <trkpt lat="35.67536" lon="139.71796">
        <ele>30.0</ele>
      </trkpt>
      <trkpt lat="35.67538" lon="139.71793">
        <ele>30.4</ele>
      </trkpt>
      <trkpt lat="35.67541" lon="139.7179">
        <ele>30.8</ele>
      </trkpt>
      <trkpt lat="35.67545" lon="139.71786">
        <ele>31.3</ele>
      </trkpt>
      <trkpt lat="35.67552" lon="139.71778">
        <ele>32.6</ele>
      </trkpt>
      <trkpt lat="35.67559" lon="139.71772">
        <ele>33.7</ele>
      </trkpt>
      <trkpt lat="35.67561" lon="139.71771">
        <ele>33.9</ele>
      </trkpt>
      <trkpt lat="35.67568" lon="139.71766">
        <ele>35.0</ele>
      </trkpt>
      <trkpt lat="35.67572" lon="139.71763">
        <ele>35.7</ele>
      </trkpt>
      <trkpt lat="35.67576" lon="139.71761">
        <ele>36.3</ele>
      </trkpt>
      <trkpt lat="35.67602" lon="139.71749">
        <ele>38.1</ele>
      </trkpt>
      <trkpt lat="35.67617" lon="139.71741">
        <ele>37.2</ele>
      </trkpt>
      <trkpt lat="35.67645" lon="139.71728">
        <ele>35.8</ele>
      </trkpt>
      <trkpt lat="35.67656" lon="139.71722">
        <ele>35.4</ele>
      </trkpt>
      <trkpt lat="35.67685" lon="139.71709">
        <ele>35.4</ele>
      </trkpt>
      <trkpt lat="35.67716" lon="139.71694">
        <ele>37.0</ele>
      </trkpt>
      <trkpt lat="35.67749" lon="139.71678">
        <ele>39.9</ele>
      </trkpt>
      <trkpt lat="35.67749" lon="139.71678">
        <ele>39.9</ele>
      </trkpt>
      <trkpt lat="35.67749" lon="139.71678">
        <ele>39.9</ele>
      </trkpt>
      <trkpt lat="35.67752" lon="139.71687">
        <ele>39.1</ele>
      </trkpt>
      <trkpt lat="35.67762" lon="139.71682">
        <ele>39.6</ele>
      </trkpt>
      <trkpt lat="35.67761" lon="139.71678">
        <ele>40.0</ele>
      </trkpt>
      <trkpt lat="35.67757" lon="139.71668">
        <ele>40.9</ele>
      </trkpt>
      <trkpt lat="35.67756" lon="139.71665">
        <ele>41.0</ele>
      </trkpt>
      <trkpt lat="35.67753" lon="139.71667">
        <ele>41.0</ele>
      </trkpt>
      <trkpt lat="35.67751" lon="139.71661">
        <ele>41.0</ele>
      </trkpt>
      <trkpt lat="35.67748" lon="139.71652">
        <ele>40.9</ele>
      </trkpt>
      <trkpt lat="35.6774" lon="139.71633">
        <ele>40.4</ele>
      </trkpt>
      <trkpt lat="35.67738" lon="139.71628">
        <ele>40.3</ele>
      </trkpt>
      <trkpt lat="35.67734" lon="139.71623">
        <ele>40.0</ele>
      </trkpt>
      <trkpt lat="35.67731" lon="139.71618">
        <ele>39.9</ele>
      </trkpt>
      <trkpt lat="35.67721" lon="139.71604">
        <ele>39.4</ele>
      </trkpt>
      <trkpt lat="35.67713" lon="139.71597">
        <ele>39.1</ele>
      </trkpt>
      <trkpt lat="35.67711" lon="139.71595">
        <ele>39.0</ele>
      </trkpt>
      <trkpt lat="35.67698" lon="139.71584">
        <ele>38.5</ele>
      </trkpt>
      <trkpt lat="35.67686" lon="139.71574">
        <ele>38.4</ele>
      </trkpt>
      <trkpt lat="35.67683" lon="139.71571">
        <ele>38.5</ele>
      </trkpt>
      <trkpt lat="35.67678" lon="139.71564">
        <ele>38.9</ele>
      </trkpt>
      <trkpt lat="35.67671" lon="139.71554">
        <ele>39.7</ele>
      </trkpt>
      <trkpt lat="35.67669" lon="139.71552">
        <ele>40.0</ele>
      </trkpt>
      <trkpt lat="35.67659" lon="139.71539">
        <ele>41.9</ele>
      </trkpt>
      <trkpt lat="35.67656" lon="139.71536">
        <ele>42.4</ele>
      </trkpt>
      <trkpt lat="35.67653" lon="139.71534">
        <ele>42.9</ele>
      </trkpt>
      <trkpt lat="35.67644" lon="139.7153">
        <ele>44.1</ele>
      </trkpt>
      <trkpt lat="35.67637" lon="139.71528">
        <ele>44.9</ele>
      </trkpt>
      <trkpt lat="35.67632" lon="139.71527">
        <ele>45.5</ele>
      </trkpt>
      <trkpt lat="35.67617" lon="139.71524">
        <ele>47.2</ele>
      </trkpt>
      <trkpt lat="35.67603" lon="139.71521">
        <ele>48.9</ele>
      </trkpt>
      <trkpt lat="35.67562" lon="139.71514">
        <ele>47.0</ele>
      </trkpt>
      <trkpt lat="35.67562" lon="139.71514">
        <ele>47.0</ele>
      </trkpt>
      <trkpt lat="35.67562" lon="139.71509">
        <ele>47.6</ele>
      </trkpt>
      <trkpt lat="35.67565" lon="139.7147">
        <ele>45.5</ele>
      </trkpt>
      <trkpt lat="35.67566" lon="139.71464">
        <ele>45.0</ele>
      </trkpt>
      <trkpt lat="35.67566" lon="139.71461">
        <ele>44.6</ele>
      </trkpt>
      <trkpt lat="35.67567" lon="139.7145">
        <ele>43.4</ele>
      </trkpt>
      <trkpt lat="35.67568" lon="139.71439">
        <ele>42.2</ele>
      </trkpt>
      <trkpt lat="35.6757" lon="139.71422">
        <ele>40.3</ele>
      </trkpt>
      <trkpt lat="35.67572" lon="139.71412">
        <ele>39.4</ele>
      </trkpt>
      <trkpt lat="35.67572" lon="139.71412">
        <ele>39.4</ele>
      </trkpt>
      <trkpt lat="35.67575" lon="139.71388">
        <ele>37.2</ele>
      </trkpt>
      <trkpt lat="35.67575" lon="139.71377">
        <ele>35.9</ele>
      </trkpt>
      <trkpt lat="35.67578" lon="139.71354">
        <ele>33.4</ele>
      </trkpt>
      <trkpt lat="35.67578" lon="139.71352">
        <ele>33.2</ele>
      </trkpt>
      <trkpt lat="35.67579" lon="139.71338">
        <ele>31.5</ele>
      </trkpt>
      <trkpt lat="35.67579" lon="139.71327">
        <ele>30.9</ele>
      </trkpt>
      <trkpt lat="35.67579" lon="139.71323">
        <ele>30.9</ele>
      </trkpt>
      <trkpt lat="35.67579" lon="139.71319">
        <ele>30.9</ele>
      </trkpt>
      <trkpt lat="35.67578" lon="139.71311">
        <ele>30.9</ele>
      </trkpt>
      <trkpt lat="35.67577" lon="139.71303">
        <ele>30.8</ele>
      </trkpt>
      <trkpt lat="35.67575" lon="139.71293">
        <ele>30.8</ele>
      </trkpt>
      <trkpt lat="35.67575" lon="139.71289">
        <ele>30.8</ele>
      </trkpt>
      <trkpt lat="35.67572" lon="139.7128">
        <ele>30.7</ele>
      </trkpt>
      <trkpt lat="35.67572" lon="139.7128">
        <ele>30.7</ele>
      </trkpt>
      <trkpt lat="35.67559" lon="139.71278">
        <ele>30.4</ele>
      </trkpt>
      <trkpt lat="35.67552" lon="139.7128">
        <ele>30.2</ele>
      </trkpt>
      <trkpt lat="35.67527" lon="139.71278">
        <ele>29.6</ele>
      </trkpt>
      <trkpt lat="35.67525" lon="139.71278">
        <ele>29.6</ele>
      </trkpt>
      <trkpt lat="35.67522" lon="139.71278">
        <ele>29.5</ele>
      </trkpt>
      <trkpt lat="35.67512" lon="139.71277">
        <ele>29.3</ele>
      </trkpt>
      <trkpt lat="35.67508" lon="139.71277">
        <ele>29.2</ele>
      </trkpt>
      <trkpt lat="35.67503" lon="139.71277">
        <ele>29.1</ele>
      </trkpt>
      <trkpt lat="35.67494" lon="139.71276">
        <ele>29.0</ele>
      </trkpt>
      <trkpt lat="35.67466" lon="139.71274">
        <ele>28.8</ele>
      </trkpt>
    </trkseg>
  </trk>
</gpx>
